Country;Airport;District;Site;Lat;Long;elevation ft;reports;;;;;;;;;
Albania;LAKU;KU;Kukes Arpt;42,034;20,416;1161;METAR, TAF;;;;;;;;;
Albania;LATI;TR;Tirana Intl;41,419;19,716;105;METAR, TAF;;;;;;;;;
Austria;LOAN;NI;Wiener-Neustadt Ost;47,843;16,26;873;METAR, TAF;;;;;;;;;
Austria;LOAV;NI;Vöslau Arpt;47,965;16,259;761;METAR, TAF;;;;;;;;;
Austria;LOIH;VO;Dornbirn Arpt;47,385;9,701;1345;METAR, TAF;;;;;;;;;
Austria;LOLW;;Wels;48,17;14,03;0;;;;;;;;;;
Austria;LOWG;ST;Graz Arpt;46,997;15,447;1106;METAR, TAF;;;;;;;;;
Austria;LOWI;TI;Innsbruck Arpt;47,26;11,344;1870;METAR, TAF;;;;;;;;;
Austria;LOWK;KA;Klagenfurt Arpt;46,648;14,318;1476;METAR, TAF;;;;;;;;;
Austria;LOWL;OB;Linz Arpt;48,233;14,188;951;METAR, TAF;;;;;;;;;
Austria;LOWS;SA;Salzburg/Mozart Arpt;47,789;13,009;1401;METAR, TAF;;;;;;;;;
Austria;LOWW;NE;Vienna Intl;48,117;16,582;587;METAR, TAF;;;;;;;;;
Austria;LOWZ;SA;Zell Am See Arpt;47,292;12,787;2480;METAR, TAF;;;;;;;;;
Austria;LOXA;ST;Aigen Im Ennstal;47,533;14,138;2096;METAR, TAF;;;;;;;;;
Austria;LOXL;OB;Horsching Aus(AB);48,233;14,183;961;;;;;;;;;;
Austria;LOXN;NE;Wiener Neustadt/West Arpt;47,832;16,231;935;;;;;;;;;;
Austria;LOXS;TI;Schwaz;47,333;11,7;1762;;;;;;;;;;
Austria;LOXT;NE;Langenlebarn/Tulln;48,324;16,118;574;METAR, TAF;;;;;;;;;
Austria;LOXZ;ST;Zeltweg Arpt(AB);47,203;14,744;2224;METAR, TAF;;;;;;;;;
Belarus;UMBB;BR;Brest Arpt;52,109;23,897;453;METAR, TAF;;;;;;;;;
Belarus;UMGG;HO;Gomel Arpt;52,525;31,015;443;METAR, TAF;;;;;;;;;
Belarus;UMII;VI;Vitebsk Arpt;55,133;30,36;682;METAR, TAF;;;;;;;;;
Belarus;UMIO;VI;Orsha Arpt;54,44;30,297;620;METAR, TAF;;;;;;;;;
Belarus;UMMG;HR;Hrodna Arpt;53,602;24,056;410;METAR, TAF;;;;;;;;;
Belarus;UMMM;MI;Minsk Intl;53,864;27,54;725;METAR, TAF;;;;;;;;;
Belarus;UMMS;MI;Minsk Arpt;53,883;28,031;643;METAR, TAF;;;;;;;;;
Belarus;UMOO;MA;Mogilev Arpt;53,954;30,1;617;METAR, TAF;;;;;;;;;
Belgium;EBAW;VA;Antwerp Intl;51,189;4,46;23;METAR, TAF;;;;;;;;;
Belgium;EBBE;WA;Beauvechain(AB);50,759;4,768;417;METAR, TAF;;;;;;;;;
Belgium;EBBL;VL;Kleine-Brogel(AB);51,168;5,47;164;METAR, TAF;;;;;;;;;
Belgium;EBBR;VL;Brussels Intl;50,896;4,526;161;METAR, TAF;;;;;;;;;
Belgium;EBBT;VA;Brasschaat (MIL);51,345;4,503;66;METAR, TAF;;;;;;;;;
Belgium;EBBX;WA;Bertrix Bel-AFB;49,891;5,225;1503;;;;;;;;;;
Belgium;EBCI;WH;Charleroi Arpt;50,459;4,454;577;METAR, TAF;;;;;;;;;
Belgium;EBCV;WH;Chièvres Arpt(AB);50,576;3,831;184;METAR, TAF;;;;;;;;;
Belgium;EBDT;VL;Schaffen(AB);51,005;5,067;82;METAR, TAF;;;;;;;;;
Belgium;EBFN;VW;Koksijde(AB);51,09;2,653;30;METAR, TAF;;;;;;;;;
Belgium;EBFS;WN;Florennes(AB);50,243;4,646;906;METAR, TAF;;;;;;;;;
Belgium;EBGT;VO;Gent/Industry Zone;51,188;3,808;23;;;;;;;;;;
Belgium;EBLB;WL;Elsenborn(AB);50,482;6,181;1847;METAR, TAF;;;;;;;;;
Belgium;EBLG;WL;Bierset/Liège Arpt;50,637;5,443;614;METAR, TAF;;;;;;;;;
Belgium;EBMB;VL;Melsbroek (AFB);50,909;4,497;105;;;;;;;;;;
Belgium;EBMT;WA;Munte (MIL);50,941;3,67;125;;;;;;;;;;
Belgium;EBOS;VH;Oostende-Bruges Intl;51,199;2,862;16;METAR, TAF;;;;;;;;;
Belgium;EBSP;WL;Spa/La Sauveniere;50,479;5,91;1555;;;;;;;;;;
Belgium;EBST;VL;St Truiden(BAFB);50,792;5,202;20;;;;;;;;;;
Belgium;EBSU;WL;Saint Hubert (MIL);50,039;5,404;1814;METAR;;;;;;;;;
Belgium;EBTN;VL;Goetsenhoven (MIL);50,782;4,958;220;;;;;;;;;;
Belgium;EBWE;VA;Weelde(MIL);51,399;4,976;98;;;;;;;;;;
Belgium;EBZW;VL;Genk/Zwartberg Arpt;51,014;5,524;276;;;;;;;;;;
Bosnia;LQBI;BI;Bihac;44,817;15,883;728;;;;;;;;;;
Bosnia;LQBK;SR;Banja Luka Intl;44,937;17,299;374;METAR, TAF;;;;;;;;;
Bosnia;LQLV;BI;Livno;43,825;17,008;2421;;;;;;;;;;
Bosnia;LQMO;BI;Mostar Intl;43,285;17,84;161;METAR, TAF;;;;;;;;;
Bosnia;LQSA;BI;Sarajevo Intl;43,825;18,331;1657;METAR, TAF;;;;;;;;;
Bosnia;LQTZ;BI;Tuzla Intl;44,461;18,728;794;METAR, TAF;;;;;;;;;
Bulgaria;LBBG;BU;Burgas Arpt;42,569;27,514;135;METAR, TAF;;;;;;;;;
Bulgaria;LBGO;LO;Gorna Orechovista Arpt;43,151;25,713;276;METAR, TAF;;;;;;;;;
Bulgaria;LBIA;BU;Bezmer(AB);42,456;26,352;509;;;;;;;;;;
Bulgaria;LBPD;PL;Plovdiv Arpt;42,064;24,86;597;METAR, TAF;;;;;;;;;
Bulgaria;LBPG;PL;Graf Ignatievo(AB);42,289;24,714;650;METAR, TAF;;;;;;;;;
Bulgaria;LBPL;LO;Dola Mitropoliya(AB);43,453;24,504;305;;;;;;;;;;
Bulgaria;LBRS;RA;Rousse/Ruse Arpt;43,692;26,051;587;;;;;;;;;;
Bulgaria;LBSF;SO;Sofia Intl;42,694;23,414;1742;METAR, TAF;;;;;;;;;
Bulgaria;LBWB;VA;Balchik(AB);43,425;28,175;623;;;;;;;;;;
Bulgaria;LBWN;VA;Varna Intl;43,232;27,825;243;METAR, TAF;;;;;;;;;
Cyprus;LCEN;LE;Ercan Arpt;35,155;33,496;299;METAR, TAF;;;;;;;;;
Cyprus;LCLK;LA;Larnaca Intl;34,874;33,617;7;METAR, TAF;;;;;;;;;
Cyprus;LCNC;LE;Nicosia/Athalassa;35,141;33,396;522;METAR, TAF;;;;;;;;;
Cyprus;LCPH;PA;Paphos Intl;34,715;32,479;26;METAR, TAF;;;;;;;;;
Cyprus;LCRA;LE;Akrotiri Arpt(RAF);34,59;32,988;75;METAR, TAF;;;;;;;;;
Czechia;LKCV;ST;Caslav Arpt;49,94;15,382;768;METAR, TAF;;;;;;;;;
Czechia;LKKB;PR;Prague/Kbely Arpt;50,123;14,538;922;METAR, TAF;;;;;;;;;
Czechia;LKKU;ZL;Kunovice Arpt;49,042;17,442;577;;;;;;;;;;
Czechia;LKKV;KA;Karlovy Vary Intl;50,202;12,91;1969;METAR, TAF;;;;;;;;;
Czechia;LKKZ;;Kosice Intl;48,664;21,242;761;;;;;;;;;;
Czechia;LKLB;LI;Liberec Arpt;50,77;15,024;1302;;;;;;;;;;
Czechia;LKLN;PL;Plzeň-Líně Arpt;49,675;13,275;1158;;;;;;;;;;
Czechia;LKMT;MO;Ostrava/Janáček Arpt;49,696;18,111;823;METAR, TAF;;;;;;;;;
Czechia;LKNA;VY;Namest nad Oslavou Arpt;49,166;16,125;1509;METAR, TAF;;;;;;;;;
Czechia;LKPD;PA;Pardubice Arpt;50,016;15,74;741;METAR, TAF;;;;;;;;;
Czechia;LKPO;OL;Prerov Arpt;49,424;17,406;659;METAR, TAF;;;;;;;;;
Czechia;LKPP;TV;Piestany;48,613;17,832;525;;;;;;;;;;
Czechia;LKPR;ST;Prague/Havel Arpt;50,101;14,26;1194;METAR, TAF;;;;;;;;;
Czechia;LKSL;;Sliac;48,63;19,14;1043;;;;;;;;;;
Czechia;LKTB;JM;Brno/Tuřany Arpt;49,151;16,694;764;METAR, TAF;;;;;;;;;
Czechia;LKVO;ST;Vodochody Arpt;50,217;14,396;902;;;;;;;;;;
Denmark;EKAH;MI;Tirstrup Arpt;56,3;10,619;82;METAR, TAF;;;;;;;;;
Denmark;EKAT;MI;Anholt Island Arpt;56,699;11,556;23;;;;;;;;;;
Denmark;EKAV;SJ;Avnø (AFB);55,083;11,783;13;;;;;;;;;;
Denmark;EKBI;SY;Billund Arpt;55,74;9,152;220;METAR, TAF;;;;;;;;;
Denmark;EKCH;HO;Kobenhavn Intl;55,618;12,656;13;METAR, TAF;;;;;;;;;
Denmark;EKEB;SY;Esbjerg Arpt;55,528;8,563;95;METAR, TAF;;;;;;;;;
Denmark;EKGC;;Gorm;55,58;4,759;315;METAR, TAF;;;;;;;;;
Denmark;EKGF;;Tyra Oest;55,721;4,802;141;METAR, TAF;;;;;;;;;
Denmark;EKHA;;Halfdan;55,531;5,004;312;;;;;;;;;;
Denmark;EKHD;;Harald;56,344;4,272;312;METAR, TAF;;;;;;;;;
Denmark;EKHN;;Horns Rev B;55,6;7,624;33;;;;;;;;;;
Denmark;EKHO;MI;Lindtorp Arpt;56,397;8,442;46;;;;;;;;;;
Denmark;EKHR;;Horns Rev B;55,509;7,875;69;;;;;;;;;;
Denmark;EKHS;NO;Hadsund Aprt;56,756;10,234;7;;;;;;;;;;
Denmark;EKKA;MI;Karup Arpt;56,293;9,114;164;METAR, TAF;;;;;;;;;
Denmark;EKMB;SJ;Maribo Arpt;54,698;11,441;16;METAR, TAF;;;;;;;;;
Denmark;EKOD;SY;Odense Arpt;55,475;10,331;43;METAR, TAF;;;;;;;;;
Denmark;EKRK;SJ;Koebenhavn/Roskilde Arpt;55,587;12,136;131;METAR, TAF;;;;;;;;;
Denmark;EKRN;HO;Ronne/Bornholm Arpt;55,068;14,749;46;METAR, TAF;;;;;;;;;
Denmark;EKRS;;Ringsted Arpt;55,426;11,807;112;;;;;;;;;;
Denmark;EKSB;SY;Sønderborg Arpt;54,962;9,787;75;METAR, TAF;;;;;;;;;
Denmark;EKSN;NO;Sindal Arpt;57,504;10,223;92;METAR, TAF;;;;;;;;;
Denmark;EKSP;SY;Vojens Arpt(AFB);55,225;9,263;131;METAR, TAF;;;;;;;;;
Denmark;EKST;SY;Sydfyns Arpt;55,015;10,568;16;;;;;;;;;;
Denmark;EKSV;MI;Skive Arpt;56,554;9,165;72;METAR, TAF;;;;;;;;;
Denmark;EKTE;;Tyra;55,722;4,802;312;;;;;;;;;;
Denmark;EKTS;NO;Thisted Arpt;57,072;8,693;20;METAR, TAF;;;;;;;;;
Denmark;EKVA;SY;Vandel (AFB);55,7;9,2;236;METAR, TAF;;;;;;;;;
Denmark;EKVD;SY;Vamdrup Arpt;55,436;9,329;135;METAR, TAF;;;;;;;;;
Denmark;EKVG;VG;Sørvágur/Vágar Arpt;62,065;-7,282;292;METAR, TAF;;;;;;;;;
Denmark;EKVJ;MI;Stauning Arpt;55,991;8,354;16;METAR, TAF;;;;;;;;;
Denmark;EKVL;HO;Vaerlose (AFB);55,77;12,324;49;METAR, TAF;;;;;;;;;
Denmark;EKYT;NO;Aalborg Arpt;57,093;9,879;7;METAR, TAF;;;;;;;;;
Estonia;EEEI;HA;Ämari (AB);59,26;24,209;62;METAR, TAF;;;;;;;;;
Estonia;EEKA;HI;Kärdla Arpt;58,991;22,831;20;METAR, TAF;;;;;;;;;
Estonia;EEKE;SA;Kuressaare Arpt;58,23;22,509;13;METAR, TAF;;;;;;;;;
Estonia;EEPU;PA;Pärnu Arpt;58,419;24,473;43;METAR, TAF;;;;;;;;;
Estonia;EETN;HA;Tallin Arpt;59,413;24,801;135;METAR, TAF;;;;;;;;;
Estonia;EETU;TA;Tartu Arpt;58,307;26,691;220;METAR, TAF;;;;;;;;;
Finland;EFET;LL;Enontekio Arpt;68,363;23,424;984;METAR, TAF;;;;;;;;;
Finland;EFHA;KS;Halli Arpt;61,855;24,805;472;METAR, TAF;;;;;;;;;
Finland;EFHF;UU;Helsinki/Malmi Arpt;60,25;25,045;52;;;;;;;;;;
Finland;EFHK;UU;Helsinki/Vantaa Arpt;60,327;24,957;184;METAR, TAF;;;;;;;;;
Finland;EFHL;PP;Hailuoto Island;65,02;24,727;23;;;;;;;;;;
Finland;EFHT;EP;Ahtari;62,535;24,218;509;;;;;;;;;;
Finland;EFIL;EP;Ilmajoki;62,693;22,83;295;;;;;;;;;;
Finland;EFIV;LL;Ivalo Arpt;68,607;27,405;476;METAR, TAF;;;;;;;;;
Finland;EFJO;PK;Joensuu Arpt;62,66;29,611;387;METAR, TAF;;;;;;;;;
Finland;EFJY;KS;Jyväskylä Arpt;62,404;25,675;456;METAR, TAF;;;;;;;;;
Finland;EFKA;EP;Kauhava Arpt;63,127;23,051;128;METAR, TAF;;;;;;;;;
Finland;EFKE;LL;Kemi/Tornio Arpt;65,784;24,579;49;METAR, TAF;;;;;;;;;
Finland;EFKI;PP;Kajaani Arpt;64,283;27,673;433;METAR, TAF;;;;;;;;;
Finland;EFKK;KP;Kruunupyy Arpt;63,721;23,143;82;METAR, TAF;;;;;;;;;
Finland;EFKS;PP;Kuusamo Arpt;65,992;29,236;886;METAR, TAF;;;;;;;;;
Finland;EFKT;LL;Kittilä Arpt;67,701;24,847;623;METAR, TAF;;;;;;;;;
Finland;EFKU;PS;Kuopio Arpt;63,008;27,799;302;METAR, TAF;;;;;;;;;
Finland;EFLP;EK;Lappeenranta Arpt;61,044;28,151;335;METAR, TAF;;;;;;;;;
Finland;EFMA;AH;Mariehamn Arpt;60,125;19,903;20;METAR, TAF;;;;;;;;;
Finland;EFMI;ES;Mikkeli Arpt;61,687;27,201;325;METAR, TAF;;;;;;;;;
Finland;EFOU;PP;Oulu Arpt;64,93;25,355;49;METAR, TAF;;;;;;;;;
Finland;EFPE;LL;Pello;66,772;23,964;259;;;;;;;;;;
Finland;EFPO;EK;Pori Arpt;61,462;21,8;33;METAR, TAF;;;;;;;;;
Finland;EFPU;PP;Pudasjarven Arpt;65,402;26,96;387;;;;;;;;;;
Finland;EFRO;LL;Rovaniemi Arpt;66,562;25,829;659;METAR, TAF;;;;;;;;;
Finland;EFSA;ES;Savonlinna Arpt;61,943;28,945;295;METAR, TAF;;;;;;;;;
Finland;EFSI;EP;Seinajoki/Ilmajoki Arpt;62,693;22,83;295;METAR, TAF;;;;;;;;;
Finland;EFSO;LL;Sodankylan Arpt;67,397;26,617;591;METAR;;;;;;;;;
Finland;EFSU;KA;Suomussalmi;64,9;29,017;722;;;;;;;;;;
Finland;EFTP;PI;Tampere/Pirkkala Arpt;61,419;23,616;364;METAR, TAF;;;;;;;;;
Finland;EFTU;VS;Turku Arpt;60,514;22,263;154;METAR, TAF;;;;;;;;;
Finland;EFUT;KY;Utti Arpt;60,896;26,938;341;METAR, TAF;;;;;;;;;
Finland;EFVA;PO;Vaasa Arpt;63,051;21,762;13;METAR, TAF;;;;;;;;;
Finland;EFVI;KS;Viitasaari Arpt;63,121;25,811;351;;;;;;;;;;
Finland;EFVR;ES;Varkaus Arpt;62,174;27,86;259;METAR, TAF;;;;;;;;;
France;61001;;Nice Bouy;43,4;7,8;0;;;;;;;;;;
France;LFAC;HD;Calais Arpt;50,962;1,955;10;;;;;;;;;;
France;LFAQ;HD;Albert/Picardie Arpt;49,972;2,704;351;METAR, TAF;;;;;;;;;
France;LFAT;HD;Le Touquet Arpt;50,515;1,623;7;METAR, TAF;;;;;;;;;
France;LFBA;NA;Agen/La Garenne Arpt;44,176;0,593;223;METAR, TAF;;;;;;;;;
France;LFBC;NA;Cazaux Pond(AB);44,533;-1,125;72;METAR, TAF;;;;;;;;;
France;LFBD;NA;Bordeaux/Mérignac Arpt;44,831;-0,691;157;METAR, TAF;;;;;;;;;
France;LFBE;NA;Bergerac/Perigord Arpt;44,826;0,516;161;METAR, TAF;;;;;;;;;
France;LFBF;OC;Toulouse/Francazai Arpt;43,546;1,367;522;;;;;;;;;;
France;LFBG;NA;Cognac/Parvaud Arpt;45,665;-0,316;92;METAR, TAF;;;;;;;;;
France;LFBH;NA;La Rochelle–Île de Ré;46,178;-1,193;59;METAR, TAF;;;;;;;;;
France;LFBI;NA;Poitiers/Biard Arpt;46,584;0,309;384;METAR, TAF;;;;;;;;;
France;LFBK;NA;Montlucon/Gueret Arpt;46,226;2,36;1309;;;;;;;;;;
France;LFBL;NA;Limoges/Bellegarde Arpt;45,863;1,179;1319;METAR, TAF;;;;;;;;;
France;LFBM;NA;Mont-de-Marsan Arpt(AB);43,912;-0,507;184;METAR, TAF;;;;;;;;;
France;LFBN;NA;Niort/Souche (A;46,316;-0,4;187;;;;;;;;;;
France;LFBO;OC;Toulouse/Blagnac Arpt;43,621;1,379;492;METAR, TAF;;;;;;;;;
France;LFBP;NA;Pau/Uzein Arpt;43,385;-0,416;597;METAR, TAF;;;;;;;;;
France;LFBS;NA;Biscarosse Arpt;44,368;-1,132;98;;;;;;;;;;
France;LFBT;OC;Tarbes/Ossun Arpt;43,189;0;1178;METAR, TAF;;;;;;;;;
France;LFBU;NA;Angouleme/Champniers;45,728;0,22;407;METAR, TAF;;;;;;;;;
France;LFBV;NA;Brive/La Roche;45,148;1,474;364;;;;;;;;;;
France;LFBX;NA;Perigueux/Bassillac;45,196;0,815;318;;;;;;;;;;
France;LFBY;NA;Dax/Seyresse Arpt;43,69;-1,07;105;METAR, TAF;;;;;;;;;
France;LFBZ;NA;Biarritz/Parme Arpt;43,469;-1,534;230;METAR, TAF;;;;;;;;;
France;LFCG;OC;St Girons/Antichan Arpt;43,009;1,104;1345;;;;;;;;;;
France;LFCI;OC;Albi/Le Sequestre;43,914;2,113;558;;;;;;;;;;
France;LFCK;OC;Castres/Mazamet Arpt;43,556;2,289;732;METAR, TAF;;;;;;;;;
France;LFCR;OC;Rodez/Marcillac Arpt;44,41;2,483;1890;METAR, TAF;;;;;;;;;
France;LFDB;OC;Montauban/Morin-Vedi;44,026;1,378;351;;;;;;;;;;
France;LFDH;OC;Auch/Lamothe Arpt;43,689;0,601;397;;;;;;;;;;
France;LFFS;GE;Suippes Range;49,148;4,575;525;;;;;;;;;;
France;LFGA;GE;Colmar/Houssen Arpt;48,11;7,359;627;;;;;;;;;;
France;LFGJ;BF;Dole/Tavaux Arpt;47,044;5,427;627;METAR, TAF;;;;;;;;;
France;LFHP;AR;Le Puy/Loudes Arpt;45,075;3,764;2720;METAR, TAF;;;;;;;;;
France;LFIG;OC;Cassagnes-Begonhes Arpt;44,178;2,515;1998;;;;;;;;;;
France;LFJL;GE;Metz/Lorraine Arpt;48,982;6,251;850;METAR, TAF;;;;;;;;;
France;LFJR;PD;Anger/Loire Arpt;47,562;-0,317;164;METAR, TAF;;;;;;;;;
France;LFKB;OC;Bastia/Poretta Arpt;42,553;9,484;23;METAR, TAF;;;;;;;;;
France;LFKC;CO;Calvi/St Catherine Arpt;42,531;8,793;125;METAR, TAF;;;;;;;;;
France;LFKF;CO;Figari/Corse Arpt;41,501;9,098;49;METAR, TAF;;;;;;;;;
France;LFKJ;CO;Ajaccio/Oro Arpt;41,924;8,803;30;METAR, TAF;;;;;;;;;
France;LFKS;CO;Solenzara(AFB);41,924;9,406;72;METAR, TAF;;;;;;;;;
France;LFLA;BF;Auxerre;47,801;3,546;682;;;;;;;;;;
France;LFLB;AR;Chambery Arpt;45,637;5,883;768;METAR, TAF;;;;;;;;;
France;LFLC;AR;Clermont-Ferrand/Auvergne Arpt;45,787;3,169;1066;METAR, TAF;;;;;;;;;
France;LFLD;CV;Bourges Arpt;47,059;2,36;522;;;;;;;;;;
France;LFLH;BF;Chalon Champforgeuil;46,826;4,818;623;;;;;;;;;;
France;LFLL;AR;Lyon/St-Exupéry Arpt;45,726;5,078;768;METAR, TAF;;;;;;;;;
France;LFLM;BF;Mâcon/Charnay Arpt;46,295;4,795;712;;;;;;;;;;
France;LFLN;BF;Saint Yan Arpt;46,412;4,025;781;METAR, TAF;;;;;;;;;
France;LFLP;AR;Annecy/Meythet Arpt;45,93;6,106;1509;METAR, TAF;;;;;;;;;
France;LFLQ;AR;Montelimar/Ancone Arpt;44,581;4,733;236;;;;;;;;;;
France;LFLS;AR;Grenoble/Alpes–Isère Arpt;45,363;5,329;1266;METAR, TAF;;;;;;;;;
France;LFLU;AR;Valence-Chabeuil Arpt;44,922;4,97;531;;;;;;;;;;
France;LFLV;AR;Vichy/Charmeil Arpt;46,167;3,399;814;METAR, TAF;;;;;;;;;
France;LFLW;AR;Aurillac Arpt;44,899;2,421;2093;METAR, TAF;;;;;;;;;
France;LFLX;CV;Chateauroux/Deols Arpt;46,87;1,741;515;METAR, TAF;;;;;;;;;
France;LFLY;AR;Lyon/Bron Arpt;45,726;4,938;646;METAR, TAF;;;;;;;;;
France;LFMA;PA;Aix Les Milles;43,506;5,368;338;;;;;;;;;;
France;LFMC;PA;Le Luc Arpt;43,383;6,386;259;METAR, TAF;;;;;;;;;
France;LFMD;PA;Cannes/Mandelieu Arpt;43,544;6,953;7;METAR, TAF;;;;;;;;;
France;LFME;OC;Nimes/Courbessac;43,854;4,413;187;METAR;;;;;;;;;
France;LFMH;AR;St-Étienne/Bouthéon;45,533;4,293;1312;METAR, TAF;;;;;;;;;
France;LFMI;PA;Istres/Le Tube(AFB);43,516;4,935;66;METAR, TAF;;;;;;;;;
France;LFMK;OC;Carcassonne/Salvaza Arpt;43,214;2,31;407;METAR, TAF;;;;;;;;;
France;LFML;PA;Marseille Arpt;43,438;5,216;66;METAR, TAF;;;;;;;;;
France;LFMN;PA;Nice/Côte d'Azur Arpt;43,658;7,216;13;METAR, TAF;;;;;;;;;
France;LFMO;PA;Orange/Caritat(AB);44,144;4,861;184;METAR, TAF;;;;;;;;;
France;LFMP;OC;Perpignan/Rivesaltes Arpt;42,737;2,873;135;METAR, TAF;;;;;;;;;
France;LFMT;OC;Montpellier/Méditerranee Arpt;43,577;3,963;3;METAR, TAF;;;;;;;;;
France;LFMU;OC;Béziers/Cap d'Agde;43,322;3,353;46;METAR, TAF;;;;;;;;;
France;LFMV;PA;Avignon/Caumont Arpt;43,911;4,903;108;METAR, TAF;;;;;;;;;
France;LFMX;OC;St-Auban-Sur-Duranc;44,062;5,99;1450;;;;;;;;;;
France;LFMY;PA;Salon de Provence(MIL);43,604;5,108;187;METAR, TAF;;;;;;;;;
France;LFNB;OC;Mende/Brenoux;44,502;3,533;3314;;;;;;;;;;
France;LFOA;CV;Avord(AFB);47,052;2,642;571;METAR, TAF;;;;;;;;;
France;LFOB;HD;Beauvais/Tille Arpt;49,454;2,113;325;METAR, TAF;;;;;;;;;
France;LFOC;CV;Chateaudun(AFB);48,061;1,376;407;METAR, TAF;;;;;;;;;
France;LFOE;NO;Evreux/De LEure(AFB);49,025;1,222;433;METAR, TAF;;;;;;;;;
France;LFOF;NO;Alencon/Valframbert;48,446;0,11;469;METAR, TAF;;;;;;;;;
France;LFOH;NO;Le Havre/Octeville Arpt;49,533;0,091;285;METAR, TAF;;;;;;;;;
France;LFOI;HD;Abbeville (AUT);50,136;1,834;233;;;;;;;;;;
France;LFOJ;CV;Orleans/Bricy(AFB);47,985;1,754;400;METAR, TAF;;;;;;;;;
France;LFOK;GE;Châlons-Vatry Arpt;48,777;4,165;545;METAR, TAF;;;;;;;;;
France;LFOP;NO;Rouen/Boos Arpt;49,383;1,182;489;METAR, TAF;;;;;;;;;
France;LFOQ;CV;Blois-Le Breuil Aprt;47,678;1,209;397;;;;;;;;;;
France;LFOR;CV;Chartres/Champol Arpt;48,46;1,501;502;;;;;;;;;;
France;LFOS;NO;Vittefleur/St Vale;49,836;0,655;266;;;;;;;;;;
France;LFOT;CV;Tours/Val de Loire Arpt;47,444;0,728;351;METAR, TAF;;;;;;;;;
France;LFOV;PD;Laval/Entrammes Arpt;48,031;-0,746;325;;;;;;;;;;
France;LFOW;HD;St Quentin/Roupy Arpt;49,818;3,206;318;;;;;;;;;;
France;LFOZ;;Orléans/St-Denis Arpt;47,897;2,163;397;;;;;;;;;;
France;LFPB;ID;Paris/Le Bourge Arpt;48,967;2,428;164;METAR, TAF;;;;;;;;;
France;LFPC;HD;Creil(AFB);49,252;2,521;272;METAR, TAF;;;;;;;;;
France;LFPG;ID;Paris/De Gaulle Arpt;49,015;2,534;351;METAR, TAF;;;;;;;;;
France;LFPM;ID;Melun/Villaroche Arpt;48,611;2,68;299;METAR, TAF;;;;;;;;;
France;LFPN;NO;Toussus le Noble Arpt;48,752;2,114;499;METAR, TAF;;;;;;;;;
France;LFPO;ID;Paris/Orly Fld;48,717;2,384;289;METAR, TAF;;;;;;;;;
France;LFPT;ID;Pontoise-Cormeilles;49,097;2,041;299;;;;;;;;;;
France;LFPV;ID;Villacoublay(AB);48,77;2,205;561;METAR, TAF;;;;;;;;;
France;LFPW;;Paris Met Cente;48,83;2,33;246;;;;;;;;;;
France;LFPY;;Bretigny Sur Or;48,6;2,33;269;;;;;;;;;;
France;LFQA;GE;Reims/Prunay Aprt;49,21;4,155;302;;;;;;;;;;
France;LFQB;GE;Troyes/Barberey Arpt;48,325;4,02;351;METAR, TAF;;;;;;;;;
France;LFQG;BF;Nevers/Fourchambault;46,998;3,113;564;;;;;;;;;;
France;LFQH;BF;Chatillon-Sur-Seine;47,849;4,58;869;;;;;;;;;;
France;LFQI;HD;Cambrai/Épinoy(AB);50,218;3,153;249;METAR, TAF;;;;;;;;;
France;LFQQ;HD;Lille/Lesquin Arpt;50,562;3,089;141;METAR, TAF;;;;;;;;;
France;LFQV;GE;Charleville/Meziere;49,783;4,643;479;;;;;;;;;;
France;LFRA;PD;Angers/Avrille(AUT);47,479;-0,614;157;;;;;;;;;;
France;LFRB;BR;Brest/Guipavas Arpt;48,444;-4,412;299;METAR, TAF;;;;;;;;;
France;LFRC;NO;Cherbourg/Manche Arpt;49,65;-1,47;449;METAR, TAF;;;;;;;;;
France;LFRD;BR;Dinard/Pleurtuit Arpt;48,589;-2,075;184;METAR, TAF;;;;;;;;;
France;LFRG;NO;Deauville/Saint Gati;49,365;0,154;479;METAR, TAF;;;;;;;;;
France;LFRH;BR;Lorient/Bihoue Arpt;47,761;-3,44;151;METAR, TAF;;;;;;;;;
France;LFRI;PD;La Roche/Les Ajoncs;46,702;-1,379;292;METAR, TAF;;;;;;;;;
France;LFRJ;BR;Landivisiau(AB);48,527;-4,138;358;METAR, TAF;;;;;;;;;
France;LFRK;NO;Caen/Carpiquet Arpt;49,18;-0,456;217;METAR, TAF;;;;;;;;;
France;LFRL;BR;Lanveoc/Poulmic Arpt;48,279;-4,439;262;METAR, TAF;;;;;;;;;
France;LFRM;PD;Le Mans/Arnage Arpt;47,949;0,202;167;METAR, TAF;;;;;;;;;
France;LFRN;BR;Rennes/St Jacques Arpt;48,069;-1,734;115;METAR, TAF;;;;;;;;;
France;LFRO;BR;Lannion/Servel Arpt;48,755;-3,469;282;METAR, TAF;;;;;;;;;
France;LFRQ;BR;Quimper/Pluguffan Arpt;47,975;-4,168;308;METAR, TAF;;;;;;;;;
France;LFRS;PD;Nantes/Atlantique Arpt;47,15;-1,609;85;METAR, TAF;;;;;;;;;
France;LFRT;BR;Saint Brieuc/Armor Arpt;48,536;-2,853;440;METAR, TAF;;;;;;;;;
France;LFRU;BR;Morlaix/Ploujean Arpt;48,601;-3,814;279;;;;;;;;;;
France;LFRV;BR;Vannes/Meucon Arpt;47,722;-2,727;433;;;;;;;;;;
France;LFRZ;PD;St Nazaire/Montoir Arpt;47,312;-2,163;7;METAR, TAF;;;;;;;;;
France;LFSA;BF;Besancon/Thise(AUT);47,249;5,989;1004;;;;;;;;;;
France;LFSB;GE;Basel/Euro Arpt;47,614;7,51;860;METAR, TAF;;;;;;;;;
France;LFSC;GE;Colmar/Meyenhei;47,922;7,4;659;METAR, TAF;;;;;;;;;
France;LFSD;BF;Dijon-Bourgogne Arpt;47,269;5,09;715;METAR, TAF;;;;;;;;;
France;LFSF;GE;Metz/Frescaty Arpt(A;49,073;6,126;627;METAR, TAF;;;;;;;;;
France;LFSG;GE;Épinal/Mirecourt Arpt;48,325;6,07;1050;;;;;;;;;;
France;LFSI;GE;St Dizier(AB);48,631;4,904;446;METAR, TAF;;;;;;;;;
France;LFSL;GE;Brive/Souillac Arpt;45,04;1,486;984;METAR, TAF;;;;;;;;;
France;LFSM;BF;Montbéliard/Courcell;47,487;6,791;1040;;;;;;;;;;
France;LFSN;GE;Nancy/Essey Arpt;48,692;6,231;702;METAR, TAF;;;;;;;;;
France;LFSO;GE;Nancy/Ochey(AFB);48,583;5,955;1076;METAR, TAF;;;;;;;;;
France;LFSQ;BF;Belfort/Fontaine;47,63;6,87;1388;;;;;;;;;;
France;LFSR;GE;Reims Arpt;49,306;4,051;299;METAR, TAF;;;;;;;;;
France;LFST;PD;Strasbourg/Entzheim Arpt;48,549;7,64;489;METAR, TAF;;;;;;;;;
France;LFSX;HD;Luxeuil Arpt(AB);47,783;6,364;873;METAR, TAF;;;;;;;;;
France;LFTH;PA;Toulon/Hyères Arpt;43,094;6,146;10;METAR, TAF;;;;;;;;;
France;LFTU;PA;St-Raphael;43,417;6,736;20;;;;;;;;;;
France;LFTW;OC;Nimes/Garons Arpt;43,757;4,416;299;METAR, TAF;;;;;;;;;
France;LFVP;ML;St Pierre Arpt;46,764;-56,169;16;METAR, TAF;;;;;;;;;
France;LFXA;AR;Ambérieu-en-Bugey(AF);45,979;5,331;817;;;;;;;;;;
France;LFXI;PA;Saint Christol Arpt;44,058;5,495;2733;;;;;;;;;;
France;LFYR;CV;Romorantin Arpt;47,32;1,688;272;METAR, TAF;;;;;;;;;
Germany;EDAC;ID;Altenburg Arpt;50,982;12,506;633;METAR, TAF;;;;;;;;;
Germany;EDAH;MV;Heringsdorf Arpt;53,879;14,152;72;METAR, TAF;;;;;;;;;
Germany;EDBC;ST;Magdeburg/Cochstedt Arpt;51,856;11,42;584;METAR, TAF;;;;;;;;;
Germany;EDBM;ST;Magdeburg/Sachsen-An;52,103;11,583;262;METAR, TAF;;;;;;;;;
Germany;EDDB;BR;Berlin/Brandenburg Intl;52,3807;13,5306;157;METAR, TAF;;;;;;;;;
Germany;EDDC;SN;Dresden Arpt;51,128;13,7543;745;METAR, TAF;;;;;;;;;
Germany;EDDE;TH;Erfurt Arpt;50,983;10,961;1030;METAR, TAF;;;;;;;;;
Germany;EDDF;HE;Frankfurt/Main Arpt;50,045;8,598;371;METAR, TAF;;;;;;;;;
Germany;EDDG;NT;Münster/Osnabrück Arpt;52,135;7,697;151;METAR, TAF;;;;;;;;;
Germany;EDDH;HH;Hamburg Arpt;53,633;9,988;26;METAR, TAF;;;;;;;;;
Germany;EDDI;BE;Berlin/Tempelhof Arpt;52,471;13,4;154;;;;;;;;;;
Germany;EDDK;NT;Koln-Bonn Arpt;50,865;7,157;302;METAR, TAF;;;;;;;;;
Germany;EDDL;NT;Düsseldorf Intl;51,296;6,769;121;METAR, TAF;;;;;;;;;
Germany;EDDM;BY;Munich Intl;48,348;11,813;1460;METAR, TAF;;;;;;;;;
Germany;EDDN;BY;Nurnberg Arpt;49,503;11,055;1024;METAR, TAF;;;;;;;;;
Germany;EDDP;SN;Leipzig/Halle Arpt;51,435;12,24;423;METAR, TAF;;;;;;;;;
Germany;EDDR;SL;Saarbrücken Arpt;49,213;7,108;1040;METAR, TAF;;;;;;;;;
Germany;EDDS;BW;Stuttgart Arpt;48,69;9,222;1227;METAR, TAF;;;;;;;;;
Germany;EDDT;BE;Berlin/Tegel Arpt;52,564;13,309;102;;;;;;;;;;
Germany;EDDV;NI;Hannover Arpt;52,466;9,68;174;METAR, TAF;;;;;;;;;
Germany;EDDW;HB;Bremen Arpt;53,047;8,787;16;METAR, TAF;;;;;;;;;
Germany;EDFE;HE;Egelsbach Arpt;49,961;8,642;371;;;;;;;;;;
Germany;EDFH;RP;Frankfurt/Hahn Arpt;49,946;7,265;1621;METAR, TAF;;;;;;;;;
Germany;EDFM;BW;Mannheim City Arpt;49,474;8,515;308;METAR, TAF;;;;;;;;;
Germany;EDGS;NT;Siegerland Arpt;50,708;8,083;1952;METAR, TAF;;;;;;;;;
Germany;EDHI;HH;Hamburg/FinkenwerderR Arpt;53,536;9,837;16;METAR, TAF;;;;;;;;;
Germany;EDHK;SH;Kiel/Holtenau Arpt;54,376;10,143;79;METAR, TAF;;;;;;;;;
Germany;EDHL;SH;Lübeck Arpt;53,805;10,719;43;METAR, TAF;;;;;;;;;
Germany;EDJA;BY;Memmingerberg Arpt;47,989;10,239;2051;METAR, TAF;;;;;;;;;
Germany;EDLN;NW;Monchengladbach Arpt;51,23;6,504;125;METAR, TAF;;;;;;;;;
Germany;EDLP;NT;Paderborn Arpt;51,614;8,616;692;METAR, TAF;;;;;;;;;
Germany;EDLV;NT;Weeze Arpt;51,602;6,142;89;METAR, TAF;;;;;;;;;
Germany;EDLW;NT;Dortmund Arpt;51,518;7,612;400;METAR, TAF;;;;;;;;;
Germany;EDMA;BY;Augsberg Arpt;48,425;10,932;1516;METAR, TAF;;;;;;;;;
Germany;EDMO;BY;Oberpfaffenhofe Arpt;48,081;11,283;1926;METAR, TAF;;;;;;;;;
Germany;EDNN;;Norvenich (GER-;50,83;6,67;443;;;;;;;;;;
Germany;EDNY;BW;Friedrichshafen Arpt;47,671;9,511;1348;METAR, TAF;;;;;;;;;
Germany;EDOP;BW;Parchim Arpt;53,427;11,783;144;METAR, TAF;;;;;;;;;
Germany;EDQD;BY;Bayreuth Arpt;49,984;11,639;1594;METAR, TAF;;;;;;;;;
Germany;EDQM;BY;Hof/Plauen Arpt;50,289;11,86;1896;METAR, TAF;;;;;;;;;
Germany;EDRZ;RP;Zweibrücken Arpt;49,209;7,401;1125;METAR, TAF;;;;;;;;;
Germany;EDSB;BW;Baden Arpt;48,779;8,081;400;METAR, TAF;;;;;;;;;
Germany;EDTD;BW;Donaueschingen Arpt;47,973;8,522;2231;METAR, TAF;;;;;;;;;
Germany;EDTL;BW;Lahr/Black Forest Arpt;48,369;7,828;499;METAR, TAF;;;;;;;;;
Germany;EDTY;BW;Schwäbisch Hall Arpt;49,118;9,784;1306;METAR, TAF;;;;;;;;;
Germany;EDTZ;BW;Konstanz Arpt;47,681;9,141;1316;;;;;;;;;;
Germany;EDVE;NI;Braunschweig Arpt;52,319;10,558;272;METAR, TAF;;;;;;;;;
Germany;EDVK;HE;Kassel/Calden Arpt;51,421;9,388;860;METAR, TAF;;;;;;;;;
Germany;EDWD;HB;Lemwerder Arpt;53,145;8,624;98;;;;;;;;;;
Germany;EDWE;NI;Emden Arpt;53,388;7,229;0;METAR, TAF;;;;;;;;;
Germany;EDXW;SH;Westerland/Sylt Arpt;54,913;8,341;26;METAR, TAF;;;;;;;;;
Germany;EDZE;NI;Essen/Mulheim Arpt;51,405;6,944;417;;;;;;;;;;
Germany;ETAB;RP;Bitburg (AFB);49,943;6,556;1227;;;;;;;;;;
Germany;ETAD;RP;Spangdahlem(AFB);49,979;6,698;1198;METAR, TAF;;;;;;;;;
Germany;ETAR;RP;Ramstein (AFB);49,437;7,6;758;METAR, TAF;;;;;;;;;
Germany;ETAS;RP;Sembach (USAFB);49,508;7,865;1027;;;;;;;;;;
Germany;ETBA;RP;Aachen/Merzbruck;50,824;6,187;627;;;;;;;;;;
Germany;ETEB;BY;Katterbach Arpt(MIL);49,308;10,639;1529;METAR, TAF;;;;;;;;;
Germany;ETEH;RP;Bad Kreuznach(AAF);49,853;7,891;338;;;;;;;;;;
Germany;ETEU;BY;Giebelstadt(AFB);49,648;9,966;981;;;;;;;;;;
Germany;ETGB;NI;Bergen (MIL);52,815;9,925;226;;;;;;;;;;
Germany;ETGG;SH;Gluecksburg/Meierwik;54,827;9,506;108;METAR, TAF;;;;;;;;;
Germany;ETGI;RO;Idar-Oberstein(MIL);49,693;7,326;1220;;;;;;;;;;
Germany;ETGK;BY;Kuemmersbruck;49,428;11,902;1371;;;;;;;;;;
Germany;ETGM;NI;Meppen(MIL);52,716;7,317;66;;;;;;;;;;
Germany;ETGQ;NI;Rotenburg Arpt;53,13;9,351;98;METAR, TAF;;;;;;;;;
Germany;ETGW;BR;Wittstock;53,2;12,517;233;;;;;;;;;;
Germany;ETGY;NT;Kalkar (MIL);51,733;6,267;98;METAR, TAF;;;;;;;;;
Germany;ETGZ;BW;Messstetten;48,187;8,995;3009;;;;;;;;;;
Germany;ETHA;BY;Altenstadt(AB);47,834;10,867;2421;METAR, TAF;;;;;;;;;
Germany;ETHB;NI;Bückeburg(AAF);52,279;9,082;226;METAR, TAF;;;;;;;;;
Germany;ETHC;NI;Celle Arpt(AAF);52,591;10,022;115;METAR, TAF;;;;;;;;;
Germany;ETHE;NT;Rheine/Bentlage(MIL);52,293;7,387;125;METAR, TAF;;;;;;;;;
Germany;ETHF;HE;Fritzlar Arpt(AAF);51,114;9,286;561;METAR, TAF;;;;;;;;;
Germany;ETHI;SH;Itzehoe (AAF);53,995;9,574;72;;;;;;;;;;
Germany;ETHL;BW;Laupheim Arpt(AAF);48,218;9,91;1759;METAR, TAF;;;;;;;;;
Germany;ETHM;RP;Mendig (AAF);50,366;7,315;568;;;;;;;;;;
Germany;ETHN;BW;Niederstetten Arpt;49,398;9,958;1529;METAR, TAF;;;;;;;;;
Germany;ETHR;BY;Roth (AAF);49,216;11,1;1253;METAR, TAF;;;;;;;;;
Germany;ETHS;NI;Fassberg Arpt(AFB);52,918;10,184;233;METAR, TAF;;;;;;;;;
Germany;ETHT;BR;Cottbus;51,769;14,293;210;;;;;;;;;;
Germany;ETIC;BY;Grafenwohr(AFB);49,696;11,941;1358;METAR, TAF;;;;;;;;;
Germany;ETID;HE;Hanau (AFB);50,169;8,962;367;;;;;;;;;;
Germany;ETIE;BW;Heidelberg(AAF);49,393;8,652;361;;;;;;;;;;
Germany;ETIH;BY;Hohenfels (AAF);49,216;11,839;1430;METAR, TAF;;;;;;;;;
Germany;ETIK;BY;Illesheim Arpt(AAF);49,472;10,39;1070;METAR, TAF;;;;;;;;;
Germany;ETIN;BY;Kitzingen (AFB);49,743;10,201;659;;;;;;;;;;
Germany;ETME;SH;Eggebek (NAVY);54,625;9,346;72;;;;;;;;;;
Germany;ETMK;SH;Kiel/Holtenau(NAVY);54,376;10,143;79;;;;;;;;;;
Germany;ETML;SH;Marienleuchte(MIL);54,494;11,241;30;;;;;;;;;;
Germany;ETMN;NI;Nordholz Arpt(NAVY);53,765;8,658;75;METAR, TAF;;;;;;;;;
Germany;ETND;NI;Diepholz Arpt(AFB);52,588;8,342;121;METAR, TAF;;;;;;;;;
Germany;ETNG;NT;Geilenkirchen(NATO);50,964;6,032;249;METAR, TAF;;;;;;;;;
Germany;ETNH;SH;Hohn (AFB);54,312;9,538;20;METAR, TAF;;;;;;;;;
Germany;ETNJ;NI;Jever (AFB);53,533;7,887;23;METAR, TAF;;;;;;;;;
Germany;ETNL;MV;Laage Arpt;53,916;12,279;131;METAR, TAF;;;;;;;;;
Germany;ETNN;NT;Noervenich (AFB);50,829;6,66;354;METAR, TAF;;;;;;;;;
Germany;ETNP;NT;Hopsten (AFB);52,339;7,541;128;;;;;;;;;;
Germany;ETNR;BB;Preschen;51,667;14,633;315;;;;;;;;;;
Germany;ETNS;SH;Schleswig(NAVY);54,457;9,52;72;METAR, TAF;;;;;;;;;
Germany;ETNT;NI;Wittmundhaven Arpt;53,548;7,667;16;METAR, TAF;;;;;;;;;
Germany;ETNU;MV;Trollenhagen;53,602;13,306;230;METAR, TAF;;;;;;;;;
Germany;ETNW;NI;Wunstorf (AFB);52,457;9,427;187;METAR, TAF;;;;;;;;;
Germany;ETOR;BW;Coleman(AFB);49,564;8,463;302;METAR, TAF;;;;;;;;;
Germany;ETOU;HE;Wiesbaden (AAF);50,048;8,329;463;METAR, TAF;;;;;;;;;
Germany;ETSA;BY;Landsberg Arpt(AFB);48,071;10,906;2031;METAR, TAF;;;;;;;;;
Germany;ETSB;RP;Buechel Arpt;50,175;7,06;1565;METAR, TAF;;;;;;;;;
Germany;ETSE;BY;Erding (AFB);48,321;11,949;1506;METAR, TAF;;;;;;;;;
Germany;ETSF;BY;Fürstenfeldbruck;48,206;11,267;1703;;;;;;;;;;
Germany;ETSH;BR;Holzdorf Arpt(MIL);51,768;13,168;259;METAR, TAF;;;;;;;;;
Germany;ETSI;BY;Ingolstadt-Manching Arpt;48,716;11,534;1201;METAR, TAF;;;;;;;;;
Germany;ETSL;BY;Lechfeld (AFB);48,185;10,861;1798;METAR, TAF;;;;;;;;;
Germany;ETSM;BY;Memmingen (AFB);47,989;10,239;2051;;;;;;;;;;
Germany;ETSN;BY;Nueburg/Donau Arpt;48,71;11,21;1240;METAR, TAF;;;;;;;;;
Germany;ETSP;RP;Pferdsfeld (AFB);49,856;7,606;1280;;;;;;;;;;
Germany;ETUL;NT;Weeze Aprt;51,602;6,143;92;;;;;;;;;;
Germany;ETUN;NI;Nordhorn Range;52,456;7,178;82;;;;;;;;;;
Germany;ETUO;NT;Gutersloh (AFB);51,923;8,306;220;METAR, TAF;;;;;;;;;
Germany;ETUR;NT;Bruggen (AFB);51,2;6,132;230;;;;;;;;;;
Germany;ETWM;NI;Meppen(MIL);52,725;7,33;59;;;;;;;;;;
Greece;EQYG;M;Souda Bay(NAS);35,53;24,15;466;;;;;;;;;;
Greece;LGAD;J;Andravida Arpt;37,923;21,287;26;METAR, TAF;;;;;;;;;
Greece;LGAL;A;Alexandroupolis/Dimokritos Arpt;40,856;25,945;16;METAR, TAF;;;;;;;;;
Greece;LGAT;I;Athens/Hellenkion;37,886;23,736;75;;;;;;;;;;
Greece;LGAV;I;Athens/Venizelos Intl;37,936;23,945;272;METAR, TAF;;;;;;;;;
Greece;LGBL;E;Nea Anchialos Arpt(MIL);39,22;22,794;43;METAR, TAF;;;;;;;;;
Greece;LGEL;I;Elefsis(AB);38,064;23,556;69;METAR, TAF;;;;;;;;;
Greece;LGHI;K;Chios Isl Arpt;38,343;26,141;20;METAR, TAF;;;;;;;;;
Greece;LGIO;D;Ioannina Arpt;39,696;20,823;1562;METAR, TAF;;;;;;;;;
Greece;LGIR;M;Iraklion Intl;35,337;25,173;121;METAR, TAF;;;;;;;;;
Greece;LGKC;J;Kythira Arpt;36,274;23,017;1027;METAR, TAF;;;;;;;;;
Greece;LGKF;F;Cephalonia Arpt;38,12;20,5;46;METAR, TAF;;;;;;;;;
Greece;LGKL;J;Kalamata Arpt;37,068;22,026;13;METAR, TAF;;;;;;;;;
Greece;LGKO;K;Kos Arpt;36,801;27,091;427;METAR, TAF;;;;;;;;;
Greece;LGKP;M;Karpathos Isl Arpt;35,421;27,146;66;METAR, TAF;;;;;;;;;
Greece;LGKR;L;Corfu/Kapodistinas Arpt;39,61;19,913;7;METAR, TAF;;;;;;;;;
Greece;LGKV;A;Kavala Intl;40,915;24,622;16;METAR, TAF;;;;;;;;;
Greece;LGKZ;C;Kozani/Filippos Arpt;40,288;21,842;2018;;;;;;;;;;
Greece;LGLM;K;Limnos Island Arpt;39,917;25,236;13;METAR, TAF;;;;;;;;;
Greece;LGLR;E;Larissa Arpt;39,65;22,465;226;;;;;;;;;;
Greece;LGMK;K;Mykonos Arpt;37,435;25,348;413;METAR, TAF;;;;;;;;;
Greece;LGMT;K;Mitilini Arpt;39,054;26,604;13;METAR, TAF;;;;;;;;;
Greece;LGNX;K;Naxos Arpt;37,081;25,369;10;;;;;;;;;;
Greece;LGPA;K;Paros/Kratikos Arpt;37,022;25,114;138;;;;;;;;;;
Greece;LGPZ;G;Preveza/Aktion Arpt;38,921;20,761;10;METAR, TAF;;;;;;;;;
Greece;LGRD;K;Rhodes/Marits;36,38;28,12;203;;;;;;;;;;
Greece;LGRP;K;Rhodes/Diagoras Arpt;36,405;28,086;10;METAR, TAF;;;;;;;;;
Greece;LGRX;J;Araxos Arpt;38,151;21,426;52;METAR, TAF;;;;;;;;;
Greece;LGSA;M;Souda Bay/Chania Intl;35,54;24,141;400;METAR, TAF;;;;;;;;;
Greece;LGSK;K;Skiathos Isl Arpt;39,177;23,504;43;METAR, TAF;;;;;;;;;
Greece;LGSM;K;Samos Arpt;37,69;26,912;16;METAR, TAF;;;;;;;;;
Greece;LGSO;K;Syros Island Arpt;37,422;24,95;233;;;;;;;;;;
Greece;LGSR;K;Santorini Isl Aprt;36,399;25,479;102;METAR, TAF;;;;;;;;;
Greece;LGST;K;Sitia Arpt;35,216;26,101;92;;;;;;;;;;
Greece;LGSY;H;Skiros Arpt;38,968;24,487;39;METAR, TAF;;;;;;;;;
Greece;LGTG;H;Tanagra (AFB);38,34;23,563;466;;;;;;;;;;
Greece;LGTL;K;Kasteli Arpt(AFB);35,192;25,327;1102;;;;;;;;;;
Greece;LGTP;J;Tripolis Arpt;37,531;22,404;2113;;;;;;;;;;
Greece;LGTS;A;Thessaloniki Intl;40,52;22,971;13;METAR, TAF;;;;;;;;;
Greece;LGTT;I;Tatoi/Dekelia(AFB);38,109;23,784;801;;;;;;;;;;
Greece;LGZA;J;Zakinthos/Salomos Arpt;37,751;20,884;10;METAR, TAF;;;;;;;;;
Greenland;BGAA;;Aasiaat Arpt;68,721;-52,784;89;METAR, TAF;;;;;;;;;
Greenland;BGAM;KJ;Tasiilaq;65,612;-37,618;59;METAR, TAF;;;;;;;;;
Greenland;BGAS;KJ;Angisoq;59,988;-45,173;98;;;;;;;;;;
Greenland;BGAT;SM;Aputiteeq;67,783;-32,285;30;;;;;;;;;;
Greenland;BGBW;KJ;Narssarssuaq Arpt;61,164;-45,42;161;METAR, TAF;;;;;;;;;
Greenland;BGCO;SM;Constable Pynt/Inaat Arpt;70,741;-22,642;171;METAR, TAF;;;;;;;;;
Greenland;BGDB;;Daneborg;74,299;-20,22;23;;;;;;;;;;
Greenland;BGDH;;Danmarkshavn;76,767;-18,667;39;METAR;;;;;;;;;
Greenland;BGEM;AV;Egedesminde;68,72;-52,794;3;METAR;;;;;;;;;
Greenland;BGFH;SM;Frederikshaab;62,013;-49,669;157;;;;;;;;;;
Greenland;BGGD;;Groennedal;61,222;-48,111;95;;;;;;;;;;
Greenland;BGGH;SM;Godthab/Nuuk Arpt;64,191;-51,677;249;METAR, TAF;;;;;;;;;
Greenland;BGHB;;Holsteinsborg;66,92;-53,67;30;;;;;;;;;;
Greenland;BGJH;KJ;Julianehaab;60,716;-46,029;46;;;;;;;;;;
Greenland;BGJN;AV;Ilulissat Arpt;69,24;-51,064;72;METAR, TAF;;;;;;;;;
Greenland;BGKK;SM;Kulusuk Arpt;65,575;-37,133;121;METAR, TAF;;;;;;;;;
Greenland;BGKT;;Uunarted;70,42;-21,97;135;;;;;;;;;;
Greenland;BGMQ;QQ;Maniitsoq Arpt;65,412;-52,934;69;METAR, TAF;;;;;;;;;
Greenland;BGPC;SM;Prins Christian;60,055;-43,165;246;;;;;;;;;;
Greenland;BGPT;SM;Paamiut Arpt;62,013;-49,669;157;METAR, TAF;;;;;;;;;
Greenland;BGQQ;AV;Qaanaaq Arpt;77,486;-69,375;56;METAR, TAF;;;;;;;;;
Greenland;BGSC;SM;Scoresbysund;70,488;-21,972;233;METAR;;;;;;;;;
Greenland;BGSF;QQ;Stroemfjord Arpt;67,013;-50,718;246;METAR, TAF;;;;;;;;;
Greenland;BGSS;QQ;Sisimiut Arpt;66,951;-53,723;112;METAR, TAF;;;;;;;;;
Greenland;BGTL;AV;Thule(AB);76,527;-68,758;259;METAR, TAF;;;;;;;;;
Greenland;BGUK;AV;Upernavik Arpt;72,798;-56,129;39;METAR, TAF;;;;;;;;;
Greenland;BGUQ;AV;Uummanaq Arpt;70,733;-52,695;367;METAR, TAF;;;;;;;;;
Hungary;LHBC;BE;Békéscsaba Arpt;46,678;21,161;266;;;;;;;;;;
Hungary;LHBM;;Budapest Met Ce;47,52;19,03;423;;;;;;;;;;
Hungary;LHBP;BU;Budapest/Liszt Intl;47,437;19,256;463;METAR, TAF;;;;;;;;;
Hungary;LHBS;BU;Budaörs;47,451;18,981;433;;;;;;;;;;
Hungary;LHDC;HL;Debrecen Arpt;47,489;21,615;344;METAR, TAF;;;;;;;;;
Hungary;LHKE;BK;Kecskemét Arpt(AB);46,917;19,749;371;METAR, TAF;;;;;;;;;
Hungary;LHKV;SO;Kaposvar Arpt(AB);46,393;17,914;472;;;;;;;;;;
Hungary;LHMC;BZ;Miskolc;48,138;20,791;377;;;;;;;;;;
Hungary;LHNY;SZ;Nyiregyhaza/Napkur;47,985;21,692;325;;;;;;;;;;
Hungary;LHPA;VE;Pápa Arpt;47,362;17,494;469;METAR, TAF;;;;;;;;;
Hungary;LHPP;BA;Pécs/Pogány Intl;45,991;18,241;633;METAR, TAF;;;;;;;;;
Hungary;LHPR;GS;Győr-Pér Intl;47,627;17,808;417;METAR, TAF;;;;;;;;;
Hungary;LHSA;VE;Azentkilyszabadja;47,078;17,968;922;;;;;;;;;;
Hungary;LHSK;SO;Siofok;46,917;18,05;354;;;;;;;;;;
Hungary;LHSM;ZA;Sármellék/Balaton Arpt;46,689;17,161;390;METAR, TAF;;;;;;;;;
Hungary;LHSN;JN;Szolnok(AB);47,123;20,235;292;METAR, TAF;;;;;;;;;
Hungary;LHSY;VA;Szombathely;47,278;16,628;722;;;;;;;;;;
Hungary;LHTA;SO;Taszár;46,393;17,917;502;;;;;;;;;;
Hungary;LHTL;PE;Tököl;47,346;18,981;328;;;;;;;;;;
Hungary;LHUD;CS;Szeged Arpt;46,256;20,09;249;METAR;;;;;;;;;
Iceland;BIAR;NE;Akureyri Arpt;65,655;-18,069;3;METAR, TAF;;;;;;;;;
Iceland;BIBD;VF;Bildudalur Arpt;65,645;-23,543;33;METAR, TAF;;;;;;;;;
Iceland;BIEG;E;Egilsstaðir Arpt;65,275;-14,409;66;METAR, TAF;;;;;;;;;
Iceland;BIGJ;;Gjögur Arpt;65,994;-21,329;105;METAR, TAF;;;;;;;;;
Iceland;BIGR;NE;Grímsey Arpt;66,548;-18,02;115;METAR, TAF;;;;;;;;;
Iceland;BIHN;E;Höfn/Hornafjörður Arpt;64,301;-15,227;26;METAR, TAF;;;;;;;;;
Iceland;BIHU;HO;Huasij Arpt;65,952;-17,426;49;METAR, TAF;;;;;;;;;
Iceland;BIIS;VF;Ísafjörður Arpt;66,056;-23,143;10;METAR, TAF;;;;;;;;;
Iceland;BIKF;SP;Keflavik Intl;63,987;-22,614;161;METAR, TAF;;;;;;;;;
Iceland;BIRG;;Raufarhofn;66,45;-15,95;33;;;;;;;;;;
Iceland;BIRK;HO;Reykjavik Arpt;64,129;-21,941;39;METAR, TAF;;;;;;;;;
Iceland;BIST;VL;Stykkisholmur;65,074;-22,734;43;;;;;;;;;;
Iceland;BITN;NE;Þórshöfn Arpt;66,218;-15,336;66;METAR, TAF;;;;;;;;;
Iceland;BIVM;S;Vestmannaeyjar Arpt;63,424;-20,278;305;METAR, TAF;;;;;;;;;
Iceland;BIVO;E;Vopnafjörður Arpt;65,72;-14,85;10;METAR, TAF;;;;;;;;;
Ireland;EICK;M;Cork Arpt;51,848;-8,479;518;METAR, TAF;;;;;;;;;
Ireland;EICM;;Galway Arpt;53,3;-8,942;82;;;;;;;;;;
Ireland;EIDB;L;Dublin Weather Centre;53,433;-6,25;213;;;;;;;;;;
Ireland;EIDL;DL;Donegal Arpt;55,044;-8,341;7;METAR, TAF;;;;;;;;;
Ireland;EIDW;L;Dublin Arpt;53,422;-6,298;246;METAR, TAF;;;;;;;;;
Ireland;EIKN;C;Knock/Ireland West Arpt;53,913;-8,811;659;METAR, TAF;;;;;;;;;
Ireland;EIKY;KY;Kerry Arpt;52,18;-9,538;75;METAR, TAF;;;;;;;;;
Ireland;EIME;L;Casement Arpt;53,306;-6,442;295;METAR, TAF;;;;;;;;;
Ireland;EINN;M;Shannon Arpt;52,702;-8,925;66;METAR, TAF;;;;;;;;;
Ireland;EISG;SO;Sligo Arpt;54,28;-8,599;3;METAR, TAF;;;;;;;;;
Ireland;EIWF;WD;Waterford Arpt;52,187;-7,087;85;METAR, TAF;;;;;;;;;
Italy;EQYS;;Signoella (NAS);37,4;14,92;82;METAR, TAF;;;;;;;;;
Italy;LIBA;PU;Amendola(AFB);41,538;15,714;180;METAR, TAF;;;;;;;;;
Italy;LIBC;CI;Crotone Arpt;38,997;17,079;518;METAR, TAF;;;;;;;;;
Italy;LIBD;PU;Bari/Palese Arpt;41,138;16,765;138;METAR, TAF;;;;;;;;;
Italy;LIBE;PU;Monte Sant Angelo;41,708;15,948;2743;;;;;;;;;;
Italy;LIBF;PU;Foggia/Lisa Arpt;41,433;15,535;266;METAR, TAF;;;;;;;;;
Italy;LIBG;PU;Grottaglie Arpt;40,517;17,403;210;METAR, TAF;;;;;;;;;
Italy;LIBH;PU;Marina di Ginos;40,424;16,887;13;;;;;;;;;;
Italy;LIBN;PU;Lecce(AFB);40,238;18,138;151;METAR, TAF;;;;;;;;;
Italy;LIBP;AB;Pescara/Abruzzo Arpt;42,432;14,181;33;METAR, TAF;;;;;;;;;
Italy;LIBQ;CI;Scuro Mountain;39,331;16,396;5446;;;;;;;;;;
Italy;LIBR;PU;Brindisi/Casale Arpt;40,658;17,951;16;METAR, TAF;;;;;;;;;
Italy;LIBS;CB;Campobasso;41,564;14,655;2546;;;;;;;;;;
Italy;LIBT;CB;Termoli;42,004;14,996;62;;;;;;;;;;
Italy;LIBU;PZ;Latronico;40,087;16,014;2848;;;;;;;;;;
Italy;LIBV;PU;Gioia Del Colle(MIL);40,766;16,935;1129;METAR, TAF;;;;;;;;;
Italy;LIBW;CI;Bonifati;39,585;15,891;1598;;;;;;;;;;
Italy;LIBY;PU;Santa Maria di Leuca;39,811;18,342;344;;;;;;;;;;
Italy;LIBZ;PZ;Potenza;40,633;15,8;2582;;;;;;;;;;
Italy;LICA;CA;Lamezia Terme Arpt;38,908;16,242;23;METAR, TAF;;;;;;;;;
Italy;LICB;RG;Comiso Arpt;36,994;14,606;696;METAR, TAF;;;;;;;;;
Italy;LICC;CT;Catania/Fontanarossa Arpt;37,467;15,064;20;METAR, TAF;;;;;;;;;
Italy;LICD;AG;Lampedusa Island Arpt;35,498;12,618;66;METAR, TAF;;;;;;;;;
Italy;LICE;EN;Enna;37,568;14,28;3045;;;;;;;;;;
Italy;LICF;ME;Messina;38,2;15,549;217;;;;;;;;;;
Italy;LICG;TP;Pantelleria Arpt;36,814;11,971;630;METAR, TAF;;;;;;;;;
Italy;LICJ;PA;Palermo Arpt;38,176;13,091;66;METAR, TAF;;;;;;;;;
Italy;LICL;CL;Gela;37,076;14,225;194;;;;;;;;;;
Italy;LICM;CS;Calopezzati;39,55;16,8;587;;;;;;;;;;
Italy;LICO;PU;Cozzo Spadaro;36,686;15,131;148;;;;;;;;;;
Italy;LICP;PA;Palmero/Boccadifal;38,111;13,313;344;;;;;;;;;;
Italy;LICR;RE;Reggio Calabria Arpt;38,072;15,654;52;METAR, TAF;;;;;;;;;
Italy;LICT;TP;Trapani/Birgi Arpt;37,911;12,488;13;METAR, TAF;;;;;;;;;
Italy;LICU;PA;Ustica;38,707;13,177;784;;;;;;;;;;
Italy;LICZ;CT;Sigonella(MIL);37,406;14,919;72;METAR, TAF;;;;;;;;;
Italy;LIEA;SS;Alghero/Fertilia Arpt;40,631;8,289;72;METAR, TAF;;;;;;;;;
Italy;LIEB;OG;Cape Bellavista;39,931;9,713;413;;;;;;;;;;
Italy;LIEC;CA;Cape Carbonara;39,104;9,514;295;;;;;;;;;;
Italy;LIED;CA;Decimomannu(AFB);39,354;8,973;85;METAR, TAF;;;;;;;;;
Italy;LIEE;CA;Cagliari/Elmas Arpt;39,243;9,06;3;METAR, TAF;;;;;;;;;
Italy;LIEF;VS;Capo Frasca;39,74;8,46;295;;;;;;;;;;
Italy;LIEG;OT;Guardiavecchia;41,217;9,4;292;;;;;;;;;;
Italy;LIEH;SS;Capo Caccia;40,561;8,163;410;;;;;;;;;;
Italy;LIEL;CA;Capo S Lorenzo;39,498;9,629;26;;;;;;;;;;
Italy;LIEN;NU;Fonni;40,117;9,25;3310;;;;;;;;;;
Italy;LIEO;OT;Olbia/Costa Smeralda Arpt;40,899;9,518;26;METAR, TAF;;;;;;;;;
Italy;LIEP;OG;Perdasdefogu;39,675;9,443;1975;;;;;;;;;;
Italy;LIMA;TO;Torino/Aeritalia Arpt;45,086;7,603;935;;;;;;;;;;
Italy;LIMC;MI;Milan/Malpensa Arpt;45,631;8,728;725;METAR, TAF;;;;;;;;;
Italy;LIME;BG;Bergamo/Orio Seno Arpt;45,674;9,704;784;METAR, TAF;;;;;;;;;
Italy;LIMF;TO;Torino/Caselle Arpt;45,203;7,649;968;METAR, TAF;;;;;;;;;
Italy;LIMG;SV;Albenga;44,046;8,126;135;METAR, TAF;;;;;;;;;
Italy;LIMH;AO;Pian Rosà(MTN);45,935;7,707;11394;;;;;;;;;;
Italy;LIMJ;GE;Genoa/Colombo Arpt;44,413;8,838;10;METAR, TAF;;;;;;;;;
Italy;LIMK;TO;Torino/Bric Della Cr;45,033;7,731;2274;;;;;;;;;;
Italy;LIML;MI;Milan/Linate Arpt;45,461;9,263;358;METAR, TAF;;;;;;;;;
Italy;LIMN;NO;Cameri(AFB);45,53;8,669;551;METAR, TAF;;;;;;;;;
Italy;LIMO;CO;Bisbino Mountai;45,87;9,067;3858;;;;;;;;;;
Italy;LIMP;PR;Parma Arpt;44,825;10,296;135;METAR, TAF;;;;;;;;;
Italy;LIMS;PC;Piacenza (IT-AFB);44,913;9,723;433;METAR, TAF;;;;;;;;;
Italy;LIMT;MS;Passo della Cisa;44,472;9,929;3386;;;;;;;;;;
Italy;LIMU;SV;Cape Mele(MET);43,958;8,17;705;;;;;;;;;;
Italy;LIMV;GE;Passo de Giovi;44,552;8,938;1555;;;;;;;;;;
Italy;LIMW;AO;Aosta Rgnl;45,735;7,351;1818;METAR, TAF;;;;;;;;;
Italy;LIMY;GE;Monte Malanotte;44,258;7,794;5715;;;;;;;;;;
Italy;LIMZ;CN;Cuneo/Levaldigi Arpt;44,547;7,623;1237;METAR, TAF;;;;;;;;;
Italy;LIPA;PN;Aviano(AFB);46,03;12,599;371;METAR, TAF;;;;;;;;;
Italy;LIPB;BO;Bolzano/Dolomiti Arpt;46,46;11,326;784;METAR, TAF;;;;;;;;;
Italy;LIPC;RV;Cervia(AFB);44,224;12,307;33;METAR, TAF;;;;;;;;;
Italy;LIPD;UD;Udine/Campoformido;46,038;13,188;295;METAR;;;;;;;;;
Italy;LIPE;BO;Bologna/Marconi Arpt;44,531;11,297;121;METAR, TAF;;;;;;;;;
Italy;LIPF;FE;Ferrara Arpt;44,814;11,61;16;METAR, TAF;;;;;;;;;
Italy;LIPH;TV;Treviso Arpt;45,648;12,194;33;METAR, TAF;;;;;;;;;
Italy;LIPI;UD;Rivolto(AFB);45,979;13,049;161;METAR, TAF;;;;;;;;;
Italy;LIPK;FC;Forli/Ridolfi Arpt;44,196;12,07;79;METAR, TAF;;;;;;;;;
Italy;LIPL;BS;Ghedi(AFB);45,432;10,268;315;METAR, TAF;;;;;;;;;
Italy;LIPO;BS;Brescia Arpt;45,429;10,331;341;METAR, TAF;;;;;;;;;
Italy;LIPP;;Dova Area Contr;45,4;11,87;46;;;;;;;;;;
Italy;LIPQ;CU;Trieste Airport;45,828;13,472;20;METAR, TAF;;;;;;;;;
Italy;LIPR;RN;Rimini/Miramare Arpt;44,02;12,612;33;METAR, TAF;;;;;;;;;
Italy;LIPS;TV;Istrana(AFB);45,689;12,101;138;METAR, TAF;;;;;;;;;
Italy;LIPT;VI;Vicenza(CIV/IT-;45,573;11,53;115;METAR, TAF;;;;;;;;;
Italy;LIPU;PD;Pavdova Arpt;45,396;11,848;20;;;;;;;;;;
Italy;LIPX;TO;Verona Arpt;45,387;10,872;220;METAR, TAF;;;;;;;;;
Italy;LIPY;AN;Falconara/Ancona Arpt;43,617;13,36;36;METAR, TAF;;;;;;;;;
Italy;LIPZ;VE;Venice/Polo Arpt;45,505;12,352;10;METAR, TAF;;;;;;;;;
Italy;LIQB;AR;Arezzo;43,455;11,848;814;;;;;;;;;;
Italy;LIQC;NA;Capri Island;40,558;14,201;505;;;;;;;;;;
Italy;LIQD;;Porretta Pass;44,03;10,93;3058;;;;;;;;;;
Italy;LIQI;;Gran Sasso Moun;42,45;13,7;7014;;;;;;;;;;
Italy;LIQJ;RM;Civitavecchia;42,033;11,833;16;;;;;;;;;;
Italy;LIQK;SA;Capo Palinuro;40,025;15,281;541;;;;;;;;;;
Italy;LIQN;RI;Rieti Arpt;42,427;12,85;1270;;;;;;;;;;
Italy;LIQO;GR;Mount Argentario;42,387;11,17;2057;;;;;;;;;;
Italy;LIQP;SP;Isola di Palmaria;44,067;9,816;1631;;;;;;;;;;
Italy;LIQR;SI;Radicofani;42,896;11,768;2569;;;;;;;;;;
Italy;LIQV;PI;Volterra;43,402;10,86;1759;;;;;;;;;;
Italy;LIQW;SP;Sarzana/Luni(AB);44,088;9,987;20;METAR, TAF;;;;;;;;;
Italy;LIQZ;SP;Ponza Isl;40,912;12,957;614;;;;;;;;;;
Italy;LIRA;RM;Ciampino Arpt;41,808;12,585;331;METAR, TAF;;;;;;;;;
Italy;LIRB;RM;Vigna Di Valle;42,08;12,211;843;;;;;;;;;;
Italy;LIRE;RM;Pratica di Mare(AFB);41,656;12,449;52;METAR, TAF;;;;;;;;;
Italy;LIRF;RM;Rome/Fiumicino;41,8;12,239;7;METAR, TAF;;;;;;;;;
Italy;LIRG;RM;Guidonia(AFB);41,996;12,735;269;METAR, TAF;;;;;;;;;
Italy;LIRH;FR;Frosinone(AFB);41,646;13,3;600;METAR, TAF;;;;;;;;;
Italy;LIRI;SA;Pontecagnano Arpt;40,62;14,911;102;;;;;;;;;;
Italy;LIRJ;EL;Elba Arpt;42,762;10,239;13;;;;;;;;;;
Italy;LIRK;RI;Monte Terminillo;42,466;12,979;5646;;;;;;;;;;
Italy;LIRL;LT;Latina Arpt(AFB);41,545;12,91;75;METAR, TAF;;;;;;;;;
Italy;LIRM;CE;Grazzanise(AFB);41,061;14,082;20;METAR, TAF;;;;;;;;;
Italy;LIRN;NA;Naples Intl;40,885;14,292;249;METAR, TAF;;;;;;;;;
Italy;LIRP;PI;Pisa/Galilei Arpt;43,684;10,393;3;METAR, TAF;;;;;;;;;
Italy;LIRQ;FI;Florence/Peretola Arpt;43,81;11,205;108;METAR, TAF;;;;;;;;;
Italy;LIRS;GR;Grosseto(AFB);42,76;11,072;10;METAR, TAF;;;;;;;;;
Italy;LIRT;AV;Trevico;41,047;15,233;3471;;;;;;;;;;
Italy;LIRU;RM;Rome/Urbe(AFB);41,953;12,5;52;METAR, TAF;;;;;;;;;
Italy;LIRV;VT;Viterbo(AFB);42,43;12,064;965;METAR, TAF;;;;;;;;;
Italy;LIRX;LI;Monte Calamita;42,731;10,396;1302;;;;;;;;;;
Italy;LIRY;;UNK;-99,99;-99,99;32805;;;;;;;;;;
Italy;LIRZ;PG;Perugia/Egidio Arpt;43,097;12,51;676;METAR, TAF;;;;;;;;;
Italy;LIVC;MO;Monte Cimone;44,194;10,7;7018;;;;;;;;;;
Italy;LIVD;BZ;Dobbiaco;46,729;12,228;4006;;;;;;;;;;
Italy;LIVE;BZ;Resia Pass;46,833;10,5;5525;;;;;;;;;;
Italy;LIVF;PU;Frontone;43,517;12,728;1801;;;;;;;;;;
Italy;LIVM;RA;Punta Marina;44,441;12,296;20;;;;;;;;;;
Italy;LIVO;UD;Tarvisio;46,506;13,586;2566;;;;;;;;;;
Italy;LIVP;TN;Monte Paganella;46,143;11,038;6886;;;;;;;;;;
Italy;LIVR;TN;Rolle Pass;46,298;11,787;6552;;;;;;;;;;
Italy;LIVT;TS;Trieste;45,677;13,754;66;;;;;;;;;;
Italy;LIYW;PN;Aviano (USAF);46,03;12,599;371;METAR, TAF;;;;;;;;;
Latvia;EVGA;RG;Lielvarde Arpt;56,778;24,854;200;METAR, TAF;;;;;;;;;
Latvia;EVLA;LP;Liepaja Intl;56,517;21,097;16;METAR, TAF;;;;;;;;;
Latvia;EVRA;RG;Riga Intl;56,924;23,968;23;METAR, TAF;;;;;;;;;
Latvia;EVVA;VS;Ventpils Arpt;57,361;21,545;3;METAR, TAF;;;;;;;;;
Lithuania;EYKA;KI;Kaunas Arpt;54,962;24,069;223;METAR, TAF;;;;;;;;;
Lithuania;EYPA;KL;Palanga Intl;55,973;21,092;49;METAR, TAF;;;;;;;;;
Lithuania;EYSA;SA;Šiauliai Intl;55,894;23,395;443;METAR, TAF;;;;;;;;;
Lithuania;EYVI;VL;Vilnius Intl;54,634;25,286;591;METAR, TAF;;;;;;;;;
Luxembourg;ELLX;LL;Luxembourg/Findel Arpt;49,626;6,204;1227;METAR, TAF;;;;;;;;;
Malta;LMML;LU;Malta Intl;35,858;14,477;256;METAR, TAF;;;;;;;;;
Moldova;LUBL;RI;Bălți Intl Arpt;47,838;27,782;741;METAR, TAF;;;;;;;;;
Moldova;LUBM;FR;Marculesti Intl;47,863;28,213;312;METAR, TAF;;;;;;;;;
Moldova;LUCH;CA;Cahul Intl;45,844;28,264;653;METAR, TAF;;;;;;;;;
Moldova;LUKK;CU;Chişinău Arpt;46,928;28,931;335;METAR, TAF;;;;;;;;;
Netherlands;EHAK;;A12-CPP Sea;55,399;3,81;108;;;;;;;;;;
Netherlands;EHAM;NH;Amsterdam/Schiphol Arpt;52,315;4,79;-7;METAR, TAF;;;;;;;;;
Netherlands;EHBK;LI;Maastricht/Aachen Arpt;50,905;5,762;367;METAR, TAF;;;;;;;;;
Netherlands;EHDB;UT;De Bilt;52,099;5,18;7;METAR;;;;;;;;;
Netherlands;EHDL;GE;Deelen(AB);52,061;5,887;161;METAR, TAF;;;;;;;;;
Netherlands;EHDV;;D15-FA-1 Sea;54,326;2,936;118;;;;;;;;;;
Netherlands;EHEH;NB;Eindhoven Arpt;51,45;5,377;66;METAR, TAF;;;;;;;;;
Netherlands;EHFD;;F3-FB-1 Sea;54,854;4,696;79;;;;;;;;;;
Netherlands;EHFS;ZE;Vlissingen;51,441;3,596;3;;;;;;;;;;
Netherlands;EHFZ;;F16-A Sea;54,117;4,012;92;;;;;;;;;;
Netherlands;EHGG;DR;Groningen Arpt;53,12;6,579;7;METAR, TAF;;;;;;;;;
Netherlands;EHGR;NB;Gilze-Rijen(AB);51,565;4,935;39;METAR, TAF;;;;;;;;;
Netherlands;EHHW;;Buitengaats;54,037;6,042;33;;;;;;;;;;
Netherlands;EHJA;;J6-A Sea;53,824;2,945;112;;;;;;;;;;
Netherlands;EHJR;;K14-A Sea;53,218;3,22;102;;;;;;;;;;
Netherlands;EHKD;NH;Den Helder Arpt;52,927;4,781;3;METAR, TAF;;;;;;;;;
Netherlands;EHKV;;K14-FA-1C Sea;53,269;3,628;92;;;;;;;;;;
Netherlands;EHLE;FL;Lelystad Arpt;52,456;5,522;-10;METAR, TAF;;;;;;;;;
Netherlands;EHLW;FR;Leeuwarden Arpt(AB);53,223;5,752;3;METAR, TAF;;;;;;;;;
Netherlands;EHMA;;AWG-1 Sea;53,492;5,942;89;;;;;;;;;;
Netherlands;EHMG;;L9-FF-1 Sea;53,614;4,96;98;;;;;;;;;;
Netherlands;EHPG;;P11-B Sea;52,36;3,342;79;;;;;;;;;;
Netherlands;EHQE;;Hoorn-A Sea;52,918;4,15;135;;;;;;;;;;
Netherlands;EHRD;ZH;Rotterdam/The Hague Arpt;51,954;4,444;-13;METAR, TAF;;;;;;;;;
Netherlands;EHSA;;Euro Platform;51,998;3,275;59;;;;;;;;;;
Netherlands;EHSB;UT;Soesterberg(AB);52,127;5,276;43;METAR, TAF;;;;;;;;;
Netherlands;EHSC;;Goeree Le Sea;51,926;3,67;62;;;;;;;;;;
Netherlands;EHTW;OV;Twente(AB);52,273;6,891;102;METAR, TAF;;;;;;;;;
Netherlands;EHVB;ZH;Valkenburg (NAVY);52,166;4,418;0;METAR, TAF;;;;;;;;;
Netherlands;EHVK;NB;Volkel Arpt(AFB);51,658;5,707;66;METAR, TAF;;;;;;;;;
Netherlands;EHVL;FR;Vlieland Island;53,297;5,086;7;;;;;;;;;;
Netherlands;EHWO;NB;Woensdrecht(AB);51,448;4,342;49;METAR, TAF;;;;;;;;;
Norway;ENAL;MR;Vigra/Alesund Arpt;62,562;6,115;69;METAR, TAF;;;;;;;;;
Norway;ENAN;NO;Andøya Arpt;69,307;16,131;43;METAR, TAF;;;;;;;;;
Norway;ENAT;FI;Alta Arpt;69,978;23,358;10;METAR, TAF;;;;;;;;;
Norway;ENBL;SO;Bringeland Arpt;61,391;5,76;1027;METAR, TAF;;;;;;;;;
Norway;ENBM;HO;Voss-Bomden;60,639;6,502;423;;;;;;;;;;
Norway;ENBN;NO;Bronnoysund/Bronnoy Arpt;65,458;12,216;10;METAR, TAF;;;;;;;;;
Norway;ENBO;NO;Bodø Arpt;67,267;14,359;43;METAR, TAF;;;;;;;;;
Norway;ENBR;HO;Bergen/Flesland Arpt;60,29;5,222;161;METAR, TAF;;;;;;;;;
Norway;ENBS;FI;Båtsfjord Arpt;70,601;29,698;472;METAR, TAF;;;;;;;;;
Norway;ENBV;FI;Berlevåg Arpt;70,871;29,032;43;METAR, TAF;;;;;;;;;
Norway;ENCN;VA;Kristiansand Arpt;58,2;8,077;56;METAR, TAF;;;;;;;;;
Norway;ENDI;BU;Dagali Arpt;60,416;8,504;2602;;;;;;;;;;
Norway;ENDR;;Draugen;64,349;7,78;33;;;;;;;;;;
Norway;ENDU;TR;Bardufoss Arpt;69,058;18,544;213;METAR, TAF;;;;;;;;;
Norway;ENEK;;Ekofisk;56,542;3,224;161;METAR, TAF;;;;;;;;;
Norway;ENEV;TR;Evenes Arpt;68,491;16,683;85;METAR, TAF;;;;;;;;;
Norway;ENFB;;Statford B;61,206;1,829;33;;;;;;;;;;
Norway;ENFG;OP;Fagernes Arpt;61,013;9,293;2690;METAR, TAF;;;;;;;;;
Norway;ENFL;SO;Florø Arpt;61,582;5,02;3;METAR, TAF;;;;;;;;;
Norway;ENFR;;Frigg;59,933;2;157;;;;;;;;;;
Norway;ENGC;;Gullfax;61,033;2,033;33;METAR, TAF;;;;;;;;;
Norway;ENGK;AA;Gullknapp Arpt;58,516;8,703;397;METAR, TAF;;;;;;;;;
Norway;ENGM;AK;Oslo/Gardermoen Arpt;60,201;11,08;669;METAR, TAF;;;;;;;;;
Norway;ENHD;RO;Haugesund Arpt;59,341;5,22;72;METAR, TAF;;;;;;;;;
Norway;ENHE;;Heidrun;65,325;2,327;33;METAR, TAF;;;;;;;;;
Norway;ENHF;FI;Hammerfest Arpt;70,681;23,677;259;METAR, TAF;;;;;;;;;
Norway;ENHK;FI;Hasvik Arpt;70,487;22,14;20;METAR, TAF;;;;;;;;;
Norway;ENHM;;Heimdal;59,57;2,22;33;METAR, TAF;;;;;;;;;
Norway;ENJS;;Johan Sverdrup;58,835;2,545;0;METAR, TAF;;;;;;;;;
Norway;ENKA;FI;Kautokeino Arpt;69,04;23,034;1194;;;;;;;;;;
Norway;ENKB;MR;Kristiansund Arpt;63,109;7,816;203;METAR, TAF;;;;;;;;;
Norway;ENKR;FI;Kirkenes/Høybuktmoen Arpt;69,725;29,898;282;METAR, TAF;;;;;;;;;
Norway;ENLA;;Ula;57,111;2,846;33;;;;;;;;;;
Norway;ENLE;;Ekofisk;56,535;3,205;33;METAR, TAF;;;;;;;;;
Norway;ENLI;VA;Lista/Farsund(AFB);58,099;6,626;16;METAR, TAF;;;;;;;;;
Norway;ENLK;NO;Leknes Arpt;68,155;13,615;85;;;;;;;;;;
Norway;ENMH;FI;Mehamn Arpt;71,029;27,829;33;METAR, TAF;;;;;;;;;
Norway;ENML;MR;Molde/Aro Arpt;62,744;7,262;10;METAR, TAF;;;;;;;;;
Norway;ENMS;NO;Mosjøen Arpt;65,784;13,218;144;METAR, TAF;;;;;;;;;
Norway;ENNA;FI;Banak Arpt;70,059;24,971;39;METAR, TAF;;;;;;;;;
Norway;ENNE;;Norne;66,03;8,08;33;METAR, TAF;;;;;;;;;
Norway;ENNK;VE;Narvik Arpt;68,437;17,386;95;;;;;;;;;;
Norway;ENNM;TR;Namsos Arpt;64,471;11,57;7;METAR, TAF;;;;;;;;;
Norway;ENNO;TE;Notodden Arpt;59,565;9,217;62;METAR, TAF;;;;;;;;;
Norway;ENOA;;Oseberg;60,492;2,827;16;METAR, TAF;;;;;;;;;
Norway;ENOL;TR;Ørland Arpt;63,703;9,609;30;METAR, TAF;;;;;;;;;
Norway;ENOV;MR;Ørsta-Volda Arpt;62,18;6,078;236;METAR, TAF;;;;;;;;;
Norway;ENQA;;Troll-A;60,645;3,725;295;;;;;;;;;;
Norway;ENQC;;Troll-C;60,886;3,61;66;;;;;;;;;;
Norway;ENQR;;Snorre B;61,53;2,22;33;;;;;;;;;;
Norway;ENRA;NO;Moirana Arpt;66,364;14,302;217;METAR, TAF;;;;;;;;;
Norway;ENRM;TR;Rørvik Arpt;64,835;11,141;13;METAR, TAF;;;;;;;;;
Norway;ENRO;TR;Røros Arpt;62,578;11,342;2047;METAR, TAF;;;;;;;;;
Norway;ENRS;VE;Røst Arpt(AFB);67,527;12,104;13;METAR, TAF;;;;;;;;;
Norway;ENRY;OS;Moss/Rygge Arpt;59,381;10,783;148;METAR, TAF;;;;;;;;;
Norway;ENSD;SO;Sandane Arpt;61,829;6,104;200;METAR, TAF;;;;;;;;;
Norway;ENSE;;Snorre A;61,45;2,15;33;;;;;;;;;;
Norway;ENSF;;Statfjord A;61,25;1,85;49;;;;;;;;;;
Norway;ENSG;SO;Sogndal/Haukasen Arpt;61,158;7,141;1617;METAR, TAF;;;;;;;;;
Norway;ENSH;NO;Svolvaer/Helle Arpt;68,245;14,669;30;METAR, TAF;;;;;;;;;
Norway;ENSK;NO;Storkmarknes Arpt;68,58;15,029;10;METAR, TAF;;;;;;;;;
Norway;ENSL;;Sleipner A Plat;58,367;1,907;164;METAR, TAF;;;;;;;;;
Norway;ENSN;TE;Skien Arpt;59,185;9,567;443;METAR, TAF;;;;;;;;;
Norway;ENSO;HO;Sorstokken/Stord Arpt;59,792;5,341;157;METAR, TAF;;;;;;;;;
Norway;ENSR;TR;Sørkjosen Arpt;69,789;20,955;16;METAR, TAF;;;;;;;;;
Norway;ENSS;FI;Vardoe Arpt;70,355;31,044;43;METAR, TAF;;;;;;;;;
Norway;ENST;NO;Sandnessjøen Arpt;65,961;12,472;56;METAR, TAF;;;;;;;;;
Norway;ENTC;TR;Tromsø Arpt;69,675;18,916;30;METAR, TAF;;;;;;;;;
Norway;ENTO;VE;Torp Arpt;59,184;10,255;276;METAR, TAF;;;;;;;;;
Norway;ENUG;;Goliat;71,305;22,253;98;;;;;;;;;;
Norway;ENUN;;Nord B;-99,99;-99,99;32805;;;;;;;;;;
Norway;ENVA;TR;Trondheim Arpt;63,46;10,931;39;METAR, TAF;;;;;;;;;
Norway;ENVD;FI;Vadsø Arpt;70,065;29,835;128;METAR, TAF;;;;;;;;;
Norway;ENVH;;Valhall A;56,278;3,393;13;;;;;;;;;;
Norway;ENVR;NO;Værøy;67,653;12,723;13;;;;;;;;;;
Norway;ENWV;;Valhall;56,278;3,395;98;;;;;;;;;;
Norway;ENZV;RO;Stavanger/Sola Arpt;58,884;5,637;23;METAR, TAF;;;;;;;;;
Poland;EPBC;;Warszawa/Babice Arpt;52,268;20,911;351;;;;;;;;;;
Poland;EPBY;KP;Bydgoszcz Aprt;53,0962;17,9949;217;METAR, TAF;;;;;;;;;
Poland;EPCE;;Cewice Airbase;54,416;17,763;495;;;;;;;;;;
Poland;EPDA;;Darlowek/Darlowo Arpt;54,405;16,353;16;;;;;;;;;;
Poland;EPDE;;Deblin Irena Arpt;51,551;21,894;394;;;;;;;;;;
Poland;EPGD;PM;Gdańsk/Wałęsa Arpt;54,379;18,466;446;METAR, TAF;;;;;;;;;
Poland;EPGI;;Gudziadz Lisie Arpt;53,524;18,849;121;METAR, TAF;;;;;;;;;
Poland;EPIR;;Inowroclaw;52,829;18,331;259;;;;;;;;;;
Poland;EPKK;ML;Kraków/Paul II Arpt;50,078;19,797;778;METAR, TAF;;;;;;;;;
Poland;EPKO;ZA;Koszalin;54,205;16,155;95;;;;;;;;;;
Poland;EPKS;;Poznan/Krzesiny;52,332;16,966;266;;;;;;;;;;
Poland;EPKT;SL;Katowice/Pyrzowice Arpt;50,478;19,085;971;METAR, TAF;;;;;;;;;
Poland;EPLB;PM;Lublin Arpt;51,239;22,714;676;METAR, TAF;;;;;;;;;
Poland;EPLK;;Lask Arfld;51,552;19,179;633;;;;;;;;;;
Poland;EPLL;LO;Łódź Arpt;51,724;19,401;577;METAR, TAF;;;;;;;;;
Poland;EPLY;;Leczyca Arfld;52,005;19,144;377;;;;;;;;;;
Poland;EPMB;;Malbork Arfld;54,027;19,134;16;;;;;;;;;;
Poland;EPMI;;Miroslawiec Airbase;53,395;16,083;459;;;;;;;;;;
Poland;EPMM;;Minsk/Mazowiecki;52,196;21,656;604;;;;;;;;;;
Poland;EPMO;MZ;Modlin Arpt;52,452;20,642;335;METAR, TAF;;;;;;;;;
Poland;EPOK;;Gdynia-Babie/Doly Arpt;54,58;18,517;144;;;;;;;;;;
Poland;EPPO;WP;Poznań/Ławica Arpt;52,417;16,835;285;METAR, TAF;;;;;;;;;
Poland;EPPR;;Pruszcz Gdanski Arfld;54,248;18,672;20;;;;;;;;;;
Poland;EPPW;;Powidz Arpt;52,379;17,854;371;;;;;;;;;;
Poland;EPRA;MZ;Radom Arpt(MAB);51,39;21,211;597;METAR, TAF;;;;;;;;;
Poland;EPRZ;PP;Rzeszów/Jasionka Arpt;50,112;22,025;676;METAR, TAF;;;;;;;;;
Poland;EPSC;ZA;Szczecin/Golenow Arpt;53,585;14,902;154;METAR, TAF;;;;;;;;;
Poland;EPSK;PM;Slupsk;54,411;17,095;243;;;;;;;;;;
Poland;EPSN;;Swidwin Arfld;53,791;15,826;384;;;;;;;;;;
Poland;EPSY;WN;Szczytno Intl;53,482;20,938;446;METAR, TAF;;;;;;;;;
Poland;EPTM;;Tomaszow Mazowiecki;51,585;20,097;571;;;;;;;;;;
Poland;EPWA;MZ;Warsaw/Chopin Arpt;52,163;20,961;351;METAR, TAF;;;;;;;;;
Poland;EPWR;DO;Wrocław/Strachowice Arpt;51,1032;16,8998;387;METAR, TAF;;;;;;;;;
Poland;EPZG;LU;Zielona Gora Arpt;52,137;15,779;194;METAR, TAF;;;;;;;;;
Portugal;LPAR;LI;Alverca Arpt;38,887;-9,03;7;METAR, TAF;;;;;;;;;
Portugal;LPAZ;AZ;Santa Maria Island Arpt;36,971;-25,171;315;METAR, TAF;;;;;;;;;
Portugal;LPBG;BG;Bragança Arpt;41,856;-6,706;2215;;;;;;;;;;
Portugal;LPBJ;BE;Beja Arpt;38,073;-7,931;643;METAR, TAF;;;;;;;;;
Portugal;LPCS;LI;Cascais Arpt;38,725;-9,355;325;METAR, TAF;;;;;;;;;
Portugal;LPFL;AZ;Azores/Flores Arpt;39,455;-31,131;115;METAR, TAF;;;;;;;;;
Portugal;LPFR;FA;Faro Arpt;37,014;-7,966;10;METAR, TAF;;;;;;;;;
Portugal;LPFU;MD;Funchal/Madeira Isl;32,645;-16,914;95;;;;;;;;;;
Portugal;LPHR;AZ;Horta Arpt;38,521;-28,714;128;METAR, TAF;;;;;;;;;
Portugal;LPLA;AZ;Lajes Acores Arpt;38,762;-27,091;197;METAR, TAF;;;;;;;;;
Portugal;LPMA;MD;Madeira Arpt;32,698;-16,774;177;METAR, TAF;;;;;;;;;
Portugal;LPMR;LE;Monte Real(AB);39,831;-8,887;164;METAR, TAF;;;;;;;;;
Portugal;LPMT;SE;Montijo(MIL);38,704;-9,036;13;METAR, TAF;;;;;;;;;
Portugal;LPOV;AV;Ovar(MIL);40,916;-8,646;52;METAR, TAF;;;;;;;;;
Portugal;LPPD;AZ;Ponta Delgada/Paulo II Arpt;37,741;-25,698;203;METAR, TAF;;;;;;;;;
Portugal;LPPR;PT;Porto/Cameriro Arpt;41,235;-8,684;210;METAR, TAF;;;;;;;;;
Portugal;LPPS;MD;Porto Santo Isl Arpt;33,073;-16,35;292;METAR, TAF;;;;;;;;;
Portugal;LPPT;LI;Lisbon Arpt;38,781;-9,136;322;METAR, TAF;;;;;;;;;
Portugal;LPST;LI;Sintra(MIL);38,831;-9,34;423;METAR, TAF;;;;;;;;;
Portugal;LPVR;VR;Vila Real;41,274;-7,717;1837;;;;;;;;;;
Romania;LRAR;AD;Arad Intl;46,176;21,264;335;METAR, TAF;;;;;;;;;
Romania;LRBC;BA;Bacău Intl;46,522;26,91;600;METAR, TAF;;;;;;;;;
Romania;LRBM;MA;Baia Mare Arpt;47,658;23,47;591;METAR, TAF;;;;;;;;;
Romania;LRBO;BZ;Boboc AB;45,213;26,97;341;;;;;;;;;;
Romania;LRBS;B;Bucharest/Băneasa Intl;44,511;26,078;299;METAR, TAF;;;;;;;;;
Romania;LRCK;CT;Constanta/Kogalniceanu Arpt;44,362;28,488;354;METAR, TAF;;;;;;;;;
Romania;LRCL;CJ;Cluj-Napoca Intl;46,783;23,676;1027;METAR, TAF;;;;;;;;;
Romania;LRCS;CS;Caransebeş;45,42;22,253;830;;;;;;;;;;
Romania;LRCT;CJ;Campia Turzii(AB);46,496;23,892;1063;METAR, TAF;;;;;;;;;
Romania;LRCV;DO;Craiova Arpt;44,31;23,867;630;METAR, TAF;;;;;;;;;
Romania;LRFT;CL;Borcea Fetesti AB;44,383;27,717;177;;;;;;;;;;
Romania;LRIA;IS;Iaşi Intl;47,164;27,627;233;METAR, TAF;;;;;;;;;
Romania;LROD;BH;Oradea Intl;47,036;21,896;433;METAR, TAF;;;;;;;;;
Romania;LROP;B;Bucharest/Coanda Intl;44,572;26,102;302;METAR, TAF;;;;;;;;;
Romania;LRSB;SO;Sibiu Intl;45,789;24,091;1450;METAR, TAF;;;;;;;;;
Romania;LRSM;SM;Satu Mare Arpt;47,703;22,886;404;METAR, TAF;;;;;;;;;
Romania;LRSV;BV;Suceava/Salcea Arpt;47,686;26,354;1332;METAR, TAF;;;;;;;;;
Romania;LRTC;TU;Tulcea Arpt;45,065;28,716;171;METAR, TAF;;;;;;;;;
Romania;LRTM;MU;Targu Mures Arpt;46,468;24,421;948;METAR, TAF;;;;;;;;;
Romania;LRTR;SI;Timisoara/Traian Vuia Arpt;45,811;21,333;341;METAR, TAF;;;;;;;;;
Romania;LRTZ;CT;Tuzla Arpt;43,985;28,607;148;;;;;;;;;;
Slovakia;LZIB;BL;Bratislava/Ivanka Arpt;48,17;17,207;423;METAR, TAF;;;;;;;;;
Slovakia;LZKC;PR;Kamenica nad Cirocho;48,935;21,994;571;;;;;;;;;;
Slovakia;LZKZ;KI;Košice Intl;48,661;21,24;745;METAR, TAF;;;;;;;;;
Slovakia;LZLU;BA;Lučenec Arpt;48,339;19,734;692;;;;;;;;;;
Slovakia;LZMC;BL;Malacky Arpt;48,396;17,119;679;;;;;;;;;;
Slovakia;LZNI;ZI;Nitra Arpt;48,278;18,136;430;;;;;;;;;;
Slovakia;LZPE;ZI;Prievidza Arpt;48,766;18,588;837;;;;;;;;;;
Slovakia;LZPP;TA;Piešťany Arpt;48,613;17,832;525;METAR, TAF;;;;;;;;;
Slovakia;LZPW;NI;Presov (MIL);49,03;21,304;1060;;;;;;;;;;
Slovakia;LZSL;BL;Sliač Arpt;48,639;19,14;1020;METAR, TAF;;;;;;;;;
Slovakia;LZTT;NI;Poprad/Tatry Arpt;49,068;20,25;2274;METAR, TAF;;;;;;;;;
Slovakia;LZZI;ZI;Žilina Arpt;49,231;18,613;1020;METAR, TAF;;;;;;;;;
Slovenia;LJCE;CE;Cerklje Arpt;45,899;15,523;502;METAR, TAF;;;;;;;;;
Slovenia;LJLJ;LJ;Ljubljana/Pucnik Arpt;46,218;14,477;1191;METAR, TAF;;;;;;;;;
Slovenia;LJMB;MA;Maribor/Rusjan Arpt;46,48;15,682;863;METAR, TAF;;;;;;;;;
Slovenia;LJMS;MU;Murska Sobota;46,63;16,175;604;;;;;;;;;;
Slovenia;LJPZ;PI;Portorož Arpt;45,473;13,615;7;METAR, TAF;;;;;;;;;
Spain;EQYR;;Rota (NAS);36,647;-6,347;85;METAR, TAF;;;;;;;;;
Spain;GCFV;CR;Fuerteventura Arpt;28,445;-13,863;36;METAR, TAF;;;;;;;;;
Spain;GCGM;CR;Alajero/La Gomera Arpt;28,032;-17,211;712;METAR, TAF;;;;;;;;;
Spain;GCHI;CR;Valverde/Hierro Arpt;27,819;-17,889;69;METAR, TAF;;;;;;;;;
Spain;GCLA;CR;La Palma Arpt;28,633;-17,755;66;METAR, TAF;;;;;;;;;
Spain;GCLP;CR;Grand Canaria Arpt;27,923;-15,389;52;METAR, TAF;;;;;;;;;
Spain;GCRR;CR;Arrecife/Lanzarote Arpt;28,952;-13,6;30;METAR, TAF;;;;;;;;;
Spain;GCTS;CR;Tenerife/South Arpt;28,047;-16,561;194;METAR, TAF;;;;;;;;;
Spain;GCXO;CR;Tenerife/North Arpt;28,483;-16,342;2044;METAR, TAF;;;;;;;;;
Spain;GECE;CU;Ceuta Heliport;35,893;-5,306;7;METAR, TAF;;;;;;;;;
Spain;GEML;ML;Melilla Arpt;35,278;-2,956;157;METAR, TAF;;;;;;;;;
Spain;LEAB;CM;Albacete Arpt;38,952;-1,863;2310;METAR, TAF;;;;;;;;;
Spain;LEAG;AN;Algeciras;36,129;-5,441;13;METAR, TAF;;;;;;;;;
Spain;LEAL;VC;Alicante Arpt;38,282;-0,558;85;METAR, TAF;;;;;;;;;
Spain;LEAM;AN;Almería Arpt;36,846;-2,357;52;METAR, TAF;;;;;;;;;
Spain;LEAO;CM;Ciudad Real(CM);38,953;-3,741;2037;METAR, TAF;;;;;;;;;
Spain;LEAS;O;Aviles/Asturias Arpt;43,567;-6,044;394;METAR, TAF;;;;;;;;;
Spain;LEBA;AN;Córdoba Arpt;37,842;-4,849;289;METAR, TAF;;;;;;;;;
Spain;LEBB;PV;Bilbao Arpt;43,298;-2,906;125;METAR, TAF;;;;;;;;;
Spain;LEBG;CL;Burgos Arpt;42,356;-3,622;2927;METAR, TAF;;;;;;;;;
Spain;LEBL;CT;Barcelona/Prat Arpt;41,293;2,07;7;METAR, TAF;;;;;;;;;
Spain;LEBR;NA;Bardenas(WX);42,2;-1,43;1138;METAR, TAF;;;;;;;;;
Spain;LEBT;VC;Valencia/Betera;39,58;-0,45;164;;;;;;;;;;
Spain;LEBZ;EX;Badajoz Arpt;38,883;-6,814;600;METAR, TAF;;;;;;;;;
Spain;LECH;VC;Castellon Arpt;40,211;0,067;1181;;;;;;;;;;
Spain;LECO;GA;A Coruña Arpt;43,307;-8,372;262;METAR, TAF;;;;;;;;;
Spain;LECV;M;Madrid-Colmenar;40,696;-3,765;3264;METAR, TAF;;;;;;;;;
Spain;LEDA;CT;Lleida-Alguaire Arpt;41,734;0,538;1155;;;;;;;;;;
Spain;LEEC;SE;Sevilla/El Copero;37,313;-5,999;23;METAR, TAF;;;;;;;;;
Spain;LEGA;AM;Granada/Armilla(MIL);37,136;-3,633;2244;METAR, TAF;;;;;;;;;
Spain;LEGE;CT;Gerona/Costa Brava Arpt;41,911;2,763;459;METAR, TAF;;;;;;;;;
Spain;LEGR;AN;Granada/Lorca Arpt;37,19;-3,789;1837;METAR, TAF;;;;;;;;;
Spain;LEGT;M;Madrid/Getafe Arpt;40,299;-3,723;2031;METAR, TAF;;;;;;;;;
Spain;LEHC;AR;Huesca/Pirineos Arpt;42,082;-0,324;1772;METAR, TAF;;;;;;;;;
Spain;LEHI;AN;Hinojosa Del Duque;38,511;-5,11;1811;;;;;;;;;;
Spain;LEIB;IB;Ibiza Arpt;38,876;1,384;13;METAR, TAF;;;;;;;;;
Spain;LEJR;AN;Jerez Arpt;36,751;-6,056;82;METAR, TAF;;;;;;;;;
Spain;LELC;MU;San Javier Arpt;37,775;-0,812;10;METAR, TAF;;;;;;;;;
Spain;LELL;CT;Sabadell Arpt;41,521;2,105;446;METAR, TAF;;;;;;;;;
Spain;LELN;CL;León Arpt;42,588;-5,651;2989;METAR, TAF;;;;;;;;;
Spain;LELO;LO;Logrono Arpt;42,452;-2,331;1155;METAR, TAF;;;;;;;;;
Spain;LEMD;M;Madrid/Barajas Arpt;40,466;-3,555;1932;METAR, TAF;;;;;;;;;
Spain;LEMG;AN;Málaga Arpt;36,666;-4,482;16;METAR, TAF;;;;;;;;;
Spain;LEMH;IB;Mahon/Menorca Arpt;39,855;4,216;269;METAR, TAF;;;;;;;;;
Spain;LEMI;MU;Murcia Intl;37,803;-1,125;633;;;;;;;;;;
Spain;LEMO;AN;Morón(AB);37,175;-5,616;269;METAR, TAF;;;;;;;;;
Spain;LEPA;IB;Palma De Mallorca Arpr;39,561;2,737;26;METAR, TAF;;;;;;;;;
Spain;LEPP;NA;Pamplona Arpt;42,777;-1,65;1470;METAR, TAF;;;;;;;;;
Spain;LERI;MU;Alcantarilla(SP-AFB);37,958;-1,229;243;METAR, TAF;;;;;;;;;
Spain;LERL;CM;Cuidad Real Arpt;38,862;-3,993;2037;METAR, TAF;;;;;;;;;
Spain;LERS;CT;Reus Arpt;41,15;1,179;223;METAR, TAF;;;;;;;;;
Spain;LERT;AN;Rota(NAVY);36,645;-6,349;89;METAR, TAF;;;;;;;;;
Spain;LESA;CL;Salamanca Arpt;40,96;-5,498;2585;METAR, TAF;;;;;;;;;
Spain;LESB;IB;Mallorca/Son Bonet Arpt;39,599;2,703;157;;;;;;;;;;
Spain;LESO;PV;San Sebastian Arpt;43,361;-1,787;10;METAR, TAF;;;;;;;;;
Spain;LEST;GA;Santiago Arpt;42,888;-8,411;1191;METAR, TAF;;;;;;;;;
Spain;LESU;CT;La Seu Arpt;42,337;1,406;2631;METAR, TAF;;;;;;;;;
Spain;LETL;AR;Teruel Arpt;40,404;-1,218;3360;;;;;;;;;;
Spain;LETO;M;Torrejon (AFB);40,489;-3,451;1962;METAR, TAF;;;;;;;;;
Spain;LETU;;UNK;-99,99;-99,99;32805;;;;;;;;;;
Spain;LEVC;VC;Valencia Arpt;39,489;-0,482;190;METAR, TAF;;;;;;;;;
Spain;LEVD;CL;Valladolid Arpt;41,706;-4,852;2769;METAR, TAF;;;;;;;;;
Spain;LEVS;M;Madrid/Vientos Arpt;40,371;-3,785;2241;METAR, TAF;;;;;;;;;
Spain;LEVT;PV;Vitoria Arpt;42,872;-2,733;1644;METAR, TAF;;;;;;;;;
Spain;LEVX;GA;Vigo/Peinador Arpt;42,239;-8,624;830;METAR, TAF;;;;;;;;;
Spain;LEXJ;S;Santander/Ballesteros Arpt;43,429;-3,831;3;METAR, TAF;;;;;;;;;
Spain;LEZA;AR;Zaragoza (USAFB);41,667;-1,05;860;;;;;;;;;;
Spain;LEZG;AR;Zaragoza Arpt;41,661;-1,004;804;METAR, TAF;;;;;;;;;
Spain;LEZL;AN;Seville/San Pablo Arpt;37,418;-5,893;85;METAR, TAF;;;;;;;;;
Sweden;ESCF;E;Linkoping/Malmen Arpt;58,398;15,526;282;METAR, TAF;;;;;;;;;
Sweden;ESCL;X;Soderhamn (AFB);61,267;17,09;92;;;;;;;;;;
Sweden;ESCM;C;Uppsala Arpt;59,899;17,589;69;METAR, TAF;;;;;;;;;
Sweden;ESDA;M;Ljungbyhed(AFB);56,083;13,213;128;;;;;;;;;;
Sweden;ESDB;M;Angelholm (AFB);56,294;12,848;62;;;;;;;;;;
Sweden;ESDF;K;Ronneby Arpt;56,266;15,267;171;METAR, TAF;;;;;;;;;
Sweden;ESGG;O;Goteborg/Landvetter Arpt;57,667;12,285;499;METAR, TAF;;;;;;;;;
Sweden;ESGJ;F;Jönköping Arpt;57,752;14,069;735;METAR, TAF;;;;;;;;;
Sweden;ESGL;Q;Lidkoping Arpt;58,47;13,187;190;;;;;;;;;;
Sweden;ESGP;O;Goteborg/City Arpt;57,781;11,869;49;METAR, TAF;;;;;;;;;
Sweden;ESGR;O;Skövde Arpt;58,457;13,97;312;;;;;;;;;;
Sweden;ESGT;O;Trollhattan Arpt;58,314;12,347;131;METAR, TAF;;;;;;;;;
Sweden;ESIA;O;Karlsborg (AFB);58,514;14,507;308;METAR, TAF;;;;;;;;;
Sweden;ESIB;O;Satenas Arpt;58,431;12,71;167;METAR, TAF;;;;;;;;;
Sweden;ESKM;W;Mora-Siljan Arpt;60,96;14,507;604;;;;;;;;;;
Sweden;ESKN;D;Stockholm/Skavsta Arpt;58,786;16,918;135;METAR, TAF;;;;;;;;;
Sweden;ESKS;W;Salen/Scandanavian Mtns Arpt;61,165;12,834;1650;METAR, TAF;;;;;;;;;
Sweden;ESMK;S;Kristianstad Arpt;55,922;14,085;66;METAR, TAF;;;;;;;;;
Sweden;ESMQ;H;Kalmar Arpt;56,685;16,284;10;METAR, TAF;;;;;;;;;
Sweden;ESMS;M;Malmo/Sturup Arpt;55,539;13,373;223;METAR, TAF;;;;;;;;;
Sweden;ESMT;N;Halmstad Arpt;56,691;12,82;79;METAR, TAF;;;;;;;;;
Sweden;ESMV;F;Hagshult(AFB);57,29;14,134;548;METAR, TAF;;;;;;;;;
Sweden;ESMX;G;Växjö Arpt;56,927;14,73;577;METAR, TAF;;;;;;;;;
Sweden;ESND;Z;Sveg Arpt;62,047;14,416;1155;;;;;;;;;;
Sweden;ESNG;BD;Gällivare Arpt;67,133;20,81;984;METAR, TAF;;;;;;;;;
Sweden;ESNJ;BD;Jokkmokk Arpt;66,497;20,145;902;;;;;;;;;;
Sweden;ESNK;Y;Kramfors/Solleftea Arpt;63,047;17,766;13;METAR, TAF;;;;;;;;;
Sweden;ESNL;AC;Lycksele Arpt;64,552;18,711;722;METAR, TAF;;;;;;;;;
Sweden;ESNN;Y;Sundsvall-Timra Aprt;62,532;17,436;13;METAR, TAF;;;;;;;;;
Sweden;ESNO;Y;Örnsköldsvik Arpt;63,412;18,98;328;METAR, TAF;;;;;;;;;
Sweden;ESNQ;BD;Kiruna Arpt;67,823;20,34;1467;METAR, TAF;;;;;;;;;
Sweden;ESNS;AC;Skellefteå Arpt;64,625;21,077;135;METAR, TAF;;;;;;;;;
Sweden;ESNU;AC;Umeå Arpt;63,789;20,285;26;METAR, TAF;;;;;;;;;
Sweden;ESNV;AC;Vilhelmina Arpt;64,579;16,839;1142;;;;;;;;;;
Sweden;ESNX;BD;Arvidsjaur Arpt;65,592;19,283;1247;METAR, TAF;;;;;;;;;
Sweden;ESNY;X;Söderhamn Arpt;61,263;17,098;92;;;;;;;;;;
Sweden;ESNZ;Z;Are Ostersund Arpt;63,199;14,489;1181;METAR, TAF;;;;;;;;;
Sweden;ESOE;T;Örebro Arpt;59,229;15,046;187;METAR, TAF;;;;;;;;;
Sweden;ESOH;;Hagfors Arpt;60,02;13,579;476;;;;;;;;;;
Sweden;ESOK;S;Karlstad Arpt;59,442;13,342;331;METAR, TAF;;;;;;;;;
Sweden;ESOW;U;Stockholm/Västerås Arpt;59,595;16,638;23;METAR, TAF;;;;;;;;;
Sweden;ESPA;BD;Luleå Arpt;65,541;22,126;39;METAR, TAF;;;;;;;;;
Sweden;ESPC;Z;Ostersund(AFB);63,199;14,489;1181;;;;;;;;;;
Sweden;ESPD;AC;Gunnarn(AFB);65,009;17,699;994;;;;;;;;;;
Sweden;ESPE;BD;Vidsel(AFB);65,875;20,144;597;METAR, TAF;;;;;;;;;
Sweden;ESSA;AB;Stockholm/Arlanda Arpt;59,664;17,92;118;METAR, TAF;;;;;;;;;
Sweden;ESSB;AB;Stockholm/Bromma Arpt;59,356;17,933;46;METAR, TAF;;;;;;;;;
Sweden;ESSD;W;Borlange/Dala Arpt;60,422;15,515;495;METAR, TAF;;;;;;;;;
Sweden;ESSF;H;Hultsfred (AFB);57,526;15,823;361;;;;;;;;;;
Sweden;ESSK;X;Gävle/Sandviken(AFB);60,593;16,951;207;;;;;;;;;;
Sweden;ESSL;E;Linköping City Arpt;58,406;15,681;167;METAR, TAF;;;;;;;;;
Sweden;ESSP;E;Norrköping Arpt;58,584;16,255;10;METAR, TAF;;;;;;;;;
Sweden;ESSQ;S;Karlstadt Arpt;59,359;13,472;154;;;;;;;;;;
Sweden;ESST;S;Torsby Arpt;60,158;12,992;361;;;;;;;;;;
Sweden;ESSV;I;Visby Arpt;57,662;18,348;125;METAR, TAF;;;;;;;;;
Sweden;ESTA;M;Angelholm Arpt;56,294;12,848;62;METAR, TAF;;;;;;;;;
Sweden;ESTL;M;Llungbyhed Arpt;56,083;13,213;128;METAR, TAF;;;;;;;;;
Sweden;ESUD;AC;Storuman/Gunnarn Arpt;64,961;17,697;922;;;;;;;;;;
Sweden;ESUP;BD;Pajala Arpt;67,246;23,069;538;;;;;;;;;;
Sweden;ESUT;AC;Hamavan Arpt;65,806;15,083;1499;METAR, TAF;;;;;;;;;
Switzerland;LSGC;NE;Les Eplatures Arpt;47,083;6,792;3340;METAR, TAF;;;;;;;;;
Switzerland;LSGG;GE;Geneva/Cointrin Arpt;46,248;6,128;1348;METAR, TAF;;;;;;;;;
Switzerland;LSGL;VD;Lausanne Arpt;46,546;6,617;2011;;;;;;;;;;
Switzerland;LSGN;NE;Neuchatel Arpt;46,955;6,866;1414;;;;;;;;;;
Switzerland;LSGS;VS;Sion Arpt;46,219;7,33;1581;METAR, TAF;;;;;;;;;
Switzerland;LSMA;OW;Alpnach Arpt(MIL);46,943;8,286;1447;METAR, TAF;;;;;;;;;
Switzerland;LSMC;VA;Ulrichen Arpt;46,505;8,308;4419;;;;;;;;;;
Switzerland;LSMD;ZH;Dübendorf Arpt(MIL);47,399;8,648;1430;METAR, TAF;;;;;;;;;
Switzerland;LSME;LU;Emmen Arpt(MIL);47,092;8,305;1401;METAR, TAF;;;;;;;;;
Switzerland;LSMM;BE;Meiringen Arpt;46,743;8,11;1870;METAR, TAF;;;;;;;;;
Switzerland;LSMP;VD;Payerne Arpt(MIL);46,844;6,916;1608;METAR, TAF;;;;;;;;;
Switzerland;LSMS;VS;Sion Arpt;46,22;7,32;1578;;;;;;;;;;
Switzerland;LSMV;;UNK;-99,99;-99,99;32805;;;;;;;;;;
Switzerland;LSZA;TI;Lugano Arpt;46,004;8,91;906;METAR, TAF;;;;;;;;;
Switzerland;LSZB;BE;Bern Arpt;46,914;7,497;1673;METAR, TAF;;;;;;;;;
Switzerland;LSZC;NW;Buochs Arpt;46,972;8,392;1460;METAR, TAF;;;;;;;;;
Switzerland;LSZG;SO;Grenchen Arpt;47,179;7,415;1404;METAR, TAF;;;;;;;;;
Switzerland;LSZH;ZH;Zürich Intl Arpt;47,48;8,536;1391;METAR, TAF;;;;;;;;;
Switzerland;LSZL;TI;Locarno Arpt;46,164;8,878;650;METAR, TAF;;;;;;;;;
Switzerland;LSZR;SG;Rheineck/Altenrhein;47,485;9,561;1299;METAR, TAF;;;;;;;;;
Switzerland;LSZS;GR;Samedan Arpt;46,526;9,879;5604;METAR, TAF;;;;;;;;;
Turkey;LTAB;AN;Ankara/Guvercin Lik;39,934;32,739;2690;METAR, TAF;;;;;;;;;
Turkey;LTAC;AN;Ankara/Esenboğa Intl;40,128;32,995;3123;METAR, TAF;;;;;;;;;
Turkey;LTAD;AN;Ankara/Etimesgut Arpt;39,95;32,689;2667;METAR, TAF;;;;;;;;;
Turkey;LTAE;AN;Murted (TUR-AFB);40,079;32,566;2743;METAR, TAF;;;;;;;;;
Turkey;LTAF;AD;Adana Arpt;36,989;35,293;62;METAR, TAF;;;;;;;;;
Turkey;LTAG;AD;Adana/Incirlik(AB);37,002;35,426;203;METAR, TAF;;;;;;;;;
Turkey;LTAH;AF;Afyon Arpt(MIL);38,735;30,596;3294;METAR, TAF;;;;;;;;;
Turkey;LTAI;AN;Antalya Arpt;36,9;30,798;164;METAR, TAF;;;;;;;;;
Turkey;LTAJ;GA;Gaziantep Arpt;36,947;37,479;2244;METAR, TAF;;;;;;;;;
Turkey;LTAK;HT;Iskenderun;36,592;36,158;7;;;;;;;;;;
Turkey;LTAL;KA;Kastamonu Arpt;41,305;33,792;3524;METAR, TAF;;;;;;;;;
Turkey;LTAN;KA;Konya Arpt;37,979;32,562;3376;METAR, TAF;;;;;;;;;
Turkey;LTAO;;Malatya Tulga Arpt;38,354;38,254;3015;;;;;;;;;;
Turkey;LTAP;AM;Merzifon Arpt(MIL);40,826;35,52;1759;METAR, TAF;;;;;;;;;
Turkey;LTAQ;;Samsun Arpt;41,278;36,305;551;;;;;;;;;;
Turkey;LTAR;SI;Sivas Arpt;39,798;36,894;5253;METAR, TAF;;;;;;;;;
Turkey;LTAS;ZO;Zonguldak/Caycuma Arpt;41,507;32,089;43;METAR, TAF;;;;;;;;;
Turkey;LTAT;MA;Malatya Arpt;38,435;38,092;2789;METAR, TAF;;;;;;;;;
Turkey;LTAU;KA;Kayseri Intl;38,77;35,495;3455;METAR, TAF;;;;;;;;;
Turkey;LTAV;ES;Sivrihisar;39,453;31,369;3202;METAR, TAF;;;;;;;;;
Turkey;LTAW;TO;Tokat Arpt;40,308;36,368;1841;METAR, TAF;;;;;;;;;
Turkey;LTAY;DE;Çardak Arpt;37,785;29,701;2792;METAR, TAF;;;;;;;;;
Turkey;LTAZ;NE;Nevsehir Arpt;38,771;34,521;3097;METAR, TAF;;;;;;;;;
Turkey;LTBA;IS;Istanbul/Ataturk Intl;40,982;28,821;108;METAR, TAF;;;;;;;;;
Turkey;LTBD;AY;Aydin/Çıldır Arpt;37,816;27,886;95;METAR, TAF;;;;;;;;;
Turkey;LTBE;BR;Bursa Arpt;40,233;29,009;318;;;;;;;;;;
Turkey;LTBF;BA;Balikesir Arpt;39,619;27,926;312;METAR, TAF;;;;;;;;;
Turkey;LTBG;BA;Bandirma Arpt(CIV/AF);40,318;27,978;138;METAR, TAF;;;;;;;;;
Turkey;LTBH;CK;Çanakkale Arpt;40,14;26,425;26;METAR, TAF;;;;;;;;;
Turkey;LTBI;ES;Eskisehir (TUR-AB);39,781;30,58;2575;METAR, TAF;;;;;;;;;
Turkey;LTBJ;IZ;Izmir/Menderes Arpt;38,285;27,155;404;METAR, TAF;;;;;;;;;
Turkey;LTBK;IZ;Izmir/Gaziemir Arpt;38,32;27,159;433;;;;;;;;;;
Turkey;LTBL;IZ;Izmir/Cigli(CV/AFB);38,513;27,01;16;METAR, TAF;;;;;;;;;
Turkey;LTBM;IS;Isparta;37,75;30,55;3661;METAR;;;;;;;;;
Turkey;LTBN;MA;Kutahya(AFB);39,427;30,017;3022;;;;;;;;;;
Turkey;LTBO;US;Uşak Arpt;38,68;29,483;2848;METAR, TAF;;;;;;;;;
Turkey;LTBP;IS;Yalova (MIL);40,682;29,377;43;;;;;;;;;;
Turkey;LTBQ;KO;Topel Arpt(TUR-AFB);40,735;30,083;167;METAR, TAF;;;;;;;;;
Turkey;LTBR;BR;Bursa/Yenisehir Arpt;40,255;29,562;764;METAR, TAF;;;;;;;;;
Turkey;LTBS;MU;Dalaman Arpt;36,713;28,793;7;METAR, TAF;;;;;;;;;
Turkey;LTBT;MA;Akhisar Arpt(TUR-AF);38,809;27,834;266;METAR, TAF;;;;;;;;;
Turkey;LTBU;TE;Corlu Arpt;41,139;27,919;541;METAR, TAF;;;;;;;;;
Turkey;LTBV;MU;Bodrum/Imisiki;37,14;27,67;157;;;;;;;;;;
Turkey;LTBX;IS;Istanbul/Samandira;40,993;29,216;381;;;;;;;;;;
Turkey;LTBY;ES;Eskisehir/Polatkan Arpt;39,81;30,519;2585;METAR, TAF;;;;;;;;;
Turkey;LTBZ;MA;Zafer Arpt;39,114;30,13;3314;METAR, TAF;;;;;;;;;
Turkey;LTCA;EL;Elazığ Arpt;38,607;39,291;2910;METAR, TAF;;;;;;;;;
Turkey;LTCB;GI;Ordu/Giresun Arpt;40,967;38,081;16;METAR, TAF;;;;;;;;;
Turkey;LTCC;DI;Diyarbakir Arpt;37,894;40,201;2218;METAR, TAF;;;;;;;;;
Turkey;LTCD;EZ;Erzincan Arpt;39,71;39,527;3760;METAR, TAF;;;;;;;;;
Turkey;LTCE;EZ;Erzurum Intl;39,956;41,17;5768;METAR, TAF;;;;;;;;;
Turkey;LTCF;KR;Kars/Harakani Arpt;40,562;43,115;5886;METAR, TAF;;;;;;;;;
Turkey;LTCG;TR;Trabzon Arpt;40,995;39,782;92;METAR, TAF;;;;;;;;;
Turkey;LTCH;SA;Sanliurfa;37,133;38,767;1804;METAR, TAF;;;;;;;;;
Turkey;LTCI;VA;Van Arpt;38,469;43,337;5427;METAR, TAF;;;;;;;;;
Turkey;LTCJ;SI;Batman Arpt;37,93;41,117;1834;METAR, TAF;;;;;;;;;
Turkey;LTCK;MU;Muş Arpt(AFB);38,748;41,661;4157;METAR, TAF;;;;;;;;;
Turkey;LTCL;SI;Siirt Arpt;37,978;41,842;1975;METAR, TAF;;;;;;;;;
Turkey;LTCM;SI;Sinop Arpt;42,019;35,072;23;METAR, TAF;;;;;;;;;
Turkey;LTCN;KA;Kahramanmaraş Arpt;37,539;36,953;1657;METAR, TAF;;;;;;;;;
Turkey;LTCO;AG;Ağrı Arpt;39,654;43,026;5436;METAR, TAF;;;;;;;;;
Turkey;LTCP;AD;Adiyaman Arpt;37,731;38,469;2205;METAR, TAF;;;;;;;;;
Turkey;LTCR;MA;Mardin Arpt;37,232;40,638;1736;METAR, TAF;;;;;;;;;
Turkey;LTCS;SA;Sanliurfa Gap Intl;37,445;38,904;2707;METAR, TAF;;;;;;;;;
Turkey;LTCT;IG;Iğdır Arpt;39,977;43,878;3071;METAR, TAF;;;;;;;;;
Turkey;LTCU;BG;Bingöl Arpt;38,861;40,593;3481;METAR, TAF;;;;;;;;;
Turkey;LTCV;SN;Sirnak Arpt;37,365;42,06;2034;METAR, TAF;;;;;;;;;
Turkey;LTCW;HA;Yüksekova Arpt;37,55;44,238;6076;METAR, TAF;;;;;;;;;
Turkey;LTDA;HT;Hatay Arpt;36,361;36,283;262;METAR, TAF;;;;;;;;;
Turkey;LTFA;IZ;Izmir/Kaklic;38,511;26,978;13;METAR, TAF;;;;;;;;;
Turkey;LTFB;IZ;Izmir-Selcuk/Efes Arpt;37,951;27,333;10;METAR, TAF;;;;;;;;;
Turkey;LTFC;IZ;Isparta/Demirel Arpt;37,855;30,368;2828;METAR, TAF;;;;;;;;;
Turkey;LTFD;BA;Balikesir/Seyit Arpt;39,559;27,025;49;METAR, TAF;;;;;;;;;
Turkey;LTFE;MU;Milas-Bodrun Arpt;37,245;27,673;20;METAR, TAF;;;;;;;;;
Turkey;LTFG;AN;Gazipasa Arpt;36,299;32,3;85;METAR, TAF;;;;;;;;;
Turkey;LTFH;SA;Samsun-Çarşamba Arpt;41,255;36,567;23;METAR, TAF;;;;;;;;;
Turkey;LTFJ;KO;Istanbul/Gokcen Intl;40,899;29,309;272;METAR, TAF;;;;;;;;;
Turkey;LTFK;IM;Gokceada Arpt;40,2;25,883;69;METAR, TAF;;;;;;;;;
Turkey;LTFM;IS;Istanbul Arpt;41,262;28,74;325;METAR, TAF;;;;;;;;;
Turkey;LTFO;RI;Rize-Artvin Arpt;41,179;40,845;16;METAR, TAF;;;;;;;;;
Ukraine;UKBB;32;Kiev/Borispil Arpt;50,34;30,896;410;METAR, TAF;;;;;;;;;
Ukraine;UKCC;14;Donetsk Intl;48,074;37,74;771;METAR, TAF;;;;;;;;;
Ukraine;UKCM;14;Mariupol Intl;47,075;37,452;236;METAR, TAF;;;;;;;;;
Ukraine;UKCW;9;Luhansk Intl;48,417;39,374;614;METAR, TAF;;;;;;;;;
Ukraine;UKDD;12;Dnipropetrovsk Intl;48,365;35,097;482;METAR, TAF;;;;;;;;;
Ukraine;UKDE;23;Zaporizhia/Mokraya Intl;47,867;35,316;348;METAR, TAF;;;;;;;;;
Ukraine;UKDR;12;Lozuvatka Intl;48,044;33,21;390;METAR, TAF;;;;;;;;;
Ukraine;UKFF;43;Simferopol Intl;45,034;33,982;614;METAR, TAF;;;;;;;;;
Ukraine;UKHH;63;Kharkiv Intl;49,925;36,29;489;METAR, TAF;;;;;;;;;
Ukraine;UKII;51;Kishinev;47,017;28,983;568;;;;;;;;;;
Ukraine;UKKE;71;Cherkasy Arpt;49,416;31,995;354;METAR, TAF;;;;;;;;;
Ukraine;UKKK;32;Kiev/Zhuliany Arpt;50,41;30,443;574;METAR, TAF;;;;;;;;;
Ukraine;UKKM;32;Hostomel Arpt;50,603;30,192;512;METAR, TAF;;;;;;;;;
Ukraine;UKLI;26;Ivano-Frankivsk Arpt;48,884;24,691;896;METAR, TAF;;;;;;;;;
Ukraine;UKLL;46;Lviv Intl;49,812;23,956;1037;METAR, TAF;;;;;;;;;
Ukraine;UKLN;77;Chernovsty Intl;48,259;25,981;794;METAR, TAF;;;;;;;;;
Ukraine;UKLR;56;Rivne Intl;50,608;26,145;745;METAR, TAF;;;;;;;;;
Ukraine;UKLU;21;Uzhhorod Arpt;48,633;22,261;364;METAR, TAF;;;;;;;;;
Ukraine;UKOH;65;Kherson Intl;46,676;32,506;141;METAR, TAF;;;;;;;;;
Ukraine;UKON;48;Mykolaiv Arpt;47,058;31,92;157;METAR, TAF;;;;;;;;;
Ukraine;UKOO;51;Odessa Intl;46,427;30,677;171;METAR, TAF;;;;;;;;;
Ukraine;UKWW;5;Vinnitsa/Gavrishevka Arpt;49,242;28,614;961;METAR, TAF;;;;;;;;;
United Kingdom;62001;;Gascogne Bouy;45,2;-5,5;0;;;;;;;;;;
United Kingdom;62027;;Jersey 5S;49,082;-2,218;0;;;;;;;;;;
United Kingdom;62028;;Weymouth Bay;50,59;-2,3;0;;;;;;;;;;
United Kingdom;62029;;K1 Bouy;48,7;-12,4;0;;;;;;;;;;
United Kingdom;62081;;K2 Bouy;51;-13,3;0;;;;;;;;;;
United Kingdom;62095;;M6 West Coast;53,056;-15,924;0;;;;;;;;;;
United Kingdom;62103;;Channel Lightship;49,9;-2,9;0;;;;;;;;;;
United Kingdom;62105;;K4 Bouy;55,4;-12,2;0;;;;;;;;;;
United Kingdom;62107;;Sevenstones Lightship;50,103;-6,1;0;;;;;;;;;;
United Kingdom;62163;;Brittany Buoy;47,5;-8,5;10;;;;;;;;;;
United Kingdom;62301;;Aberporth Bouy;52,3;-4,5;0;;;;;;;;;;
United Kingdom;62304;;Sandettie Lightship;51,1;1,8;13;;;;;;;;;;
United Kingdom;62305;;Greenwich Lightship;50,4;0;13;;;;;;;;;;
United Kingdom;64045;;K5 Bouy;59,1;-11,4;0;;;;;;;;;;
United Kingdom;64046;;Buoy;60,7;-4,5;13;;;;;;;;;;
United Kingdom;EGAA;NI;Belfast Intl;54,654;-6,225;213;METAR, TAF;;;;;;;;;
United Kingdom;EGAC;NI;Belfast/Harbour Arpt;54,614;-5,873;7;METAR, TAF;;;;;;;;;
United Kingdom;EGAE;NI;Derry/City Arpt;55,043;-7,161;30;METAR, TAF;;;;;;;;;
United Kingdom;EGBB;EN;Birmingham Intl;52,46;-1,758;299;METAR, TAF;;;;;;;;;
United Kingdom;EGBE;EN;Coventry Arpt;52,37;-1,48;269;METAR, TAF;;;;;;;;;
United Kingdom;EGBJ;EN;Gloucestershire Arpt;51,892;-2,161;89;METAR, TAF;;;;;;;;;
United Kingdom;EGCC;EN;Manchester Intl;53,354;-2,275;256;METAR, TAF;;;;;;;;;
United Kingdom;EGCK;WL;Caernarfon Arpt;53,104;-4,34;20;METAR, TAF;;;;;;;;;
United Kingdom;EGCN;EN;Doncaster/Robin Hood;53,475;-1,004;30;METAR, TAF;;;;;;;;;
United Kingdom;EGDB;EN;Plymouth;50,355;-4,121;141;;;;;;;;;;
United Kingdom;EGDC;EN;Chivenor(RAF);51,089;-4,149;26;;;;;;;;;;
United Kingdom;EGDG;EN;Saint Mawgan(RAF);50,438;-4,998;331;;;;;;;;;;
United Kingdom;EGDK;EN;Kemble(RAF);51,667;-2,051;410;;;;;;;;;;
United Kingdom;EGDL;EN;Lyneham(RAF);51,503;-1,992;476;METAR, TAF;;;;;;;;;
United Kingdom;EGDM;EN;Boscombe Down(MIL);51,153;-1,75;400;METAR, TAF;;;;;;;;;
United Kingdom;EGDP;EN;Portland;50,568;-2,45;10;;;;;;;;;;
United Kingdom;EGDR;EN;Culdrose (NAVY);50,084;-5,257;243;METAR, TAF;;;;;;;;;
United Kingdom;EGDX;WL;St Athan(RAF);51,406;-3,435;161;METAR, TAF;;;;;;;;;
United Kingdom;EGDY;EN;Yeovilton Arpt(NAVY);51,006;-2,643;69;METAR, TAF;;;;;;;;;
United Kingdom;EGEC;SC;Campbeltown Arpt;55,437;-5,686;33;METAR, TAF;;;;;;;;;
United Kingdom;EGEO;SC;Oban Arpt;56,464;-5,4;16;METAR, TAF;;;;;;;;;
United Kingdom;EGFF;WL;Cardiff Intl;51,397;-3,343;213;METAR, TAF;;;;;;;;;
United Kingdom;EGFH;WL;Swansea Arpt;51,605;-4,068;276;;;;;;;;;;
United Kingdom;EGGD;EN;Bristol Intl;51,383;-2,719;597;METAR, TAF;;;;;;;;;
United Kingdom;EGGP;EN;Liverpool/Lennon Arpt;53,334;-2,85;75;METAR, TAF;;;;;;;;;
United Kingdom;EGGW;EN;Luton Arpt;51,875;-0,368;522;METAR, TAF;;;;;;;;;
United Kingdom;EGHC;EN;Penzance/Lands End Arpt;50,103;-5,671;384;METAR, TAF;;;;;;;;;
United Kingdom;EGHD;EN;Plymouth/City Arpt;50,423;-4,11;469;METAR, TAF;;;;;;;;;
United Kingdom;EGHE;EN;Scilly Isles/St Marys Arpt;49,914;-6,296;102;METAR, TAF;;;;;;;;;
United Kingdom;EGHH;EN;Bournemouth Intl;50,779;-1,836;30;METAR, TAF;;;;;;;;;
United Kingdom;EGHI;EN;Southampton Intl;50,944;-1,358;43;METAR, TAF;;;;;;;;;
United Kingdom;EGHK;EN;Penzance;50,129;-5,518;16;;;;;;;;;;
United Kingdom;EGHQ;EN;Newquay/Cornwall Arpt;50,438;-4,998;331;METAR, TAF;;;;;;;;;
United Kingdom;EGKA;EN;Shoreham Arpt;50,836;-0,294;7;METAR, TAF;;;;;;;;;
United Kingdom;EGKB;EN;London/Biggin Hill Arpt;51,33;0,033;600;METAR, TAF;;;;;;;;;
United Kingdom;EGKK;EN;London/Gatwick Arpt;51,148;-0,19;190;METAR, TAF;;;;;;;;;
United Kingdom;EGLC;EN;London City Arpt;51,505;0,055;33;METAR, TAF;;;;;;;;;
United Kingdom;EGLF;EN;Farnborough Arpt;51,28;-0,773;213;METAR, TAF;;;;;;;;;
United Kingdom;EGLL;EN;London/Heathrow Intl;51,477;-0,461;85;METAR, TAF;;;;;;;;;
United Kingdom;EGMC;EN;Southend Arpt;51,571;0,696;49;METAR, TAF;;;;;;;;;
United Kingdom;EGMD;EN;Lydd Arpt;50,956;0,939;13;METAR, TAF;;;;;;;;;
United Kingdom;EGMH;EN;Manston/Kent Intl;51,346;1,335;180;METAR, TAF;;;;;;;;;
United Kingdom;EGMW;EN;Lowestoft Harbour;52,471;1,75;16;;;;;;;;;;
United Kingdom;EGNC;EN;Carlisle Arpt;54,94;-2,805;161;METAR, TAF;;;;;;;;;
United Kingdom;EGNH;EN;Blackpool Arpt;53,774;-3,039;33;METAR, TAF;;;;;;;;;
United Kingdom;EGNJ;EN;Humberside Intl;53,58;-0,341;75;METAR, TAF;;;;;;;;;
United Kingdom;EGNL;EN;Walney Island;54,125;-3,258;56;;;;;;;;;;
United Kingdom;EGNM;EN;Leeds Bradford Intl;53,862;-1,665;725;METAR, TAF;;;;;;;;;
United Kingdom;EGNO;EN;Warton Arpt;53,746;-2,889;39;METAR, TAF;;;;;;;;;
United Kingdom;EGNR;WL;Hawarden Arpt;53,175;-2,987;36;METAR, TAF;;;;;;;;;
United Kingdom;EGNT;SC;Newcastle Intl;55,037;-1,702;253;METAR, TAF;;;;;;;;;
United Kingdom;EGNV;EN;Teesside Intl;54,511;-1,418;118;METAR, TAF;;;;;;;;;
United Kingdom;EGNX;EN;Nottingham/E Midlands Arpt;52,833;-1,333;299;METAR, TAF;;;;;;;;;
United Kingdom;EGOD;WL;Llanbedr Arpt;52,803;-4,124;30;;;;;;;;;;
United Kingdom;EGOM;SC;Spadeadam(MET);55,05;-2,554;938;;;;;;;;;;
United Kingdom;EGOP;WL;Pembry Sands(MET);51,714;-4,367;26;;;;;;;;;;
United Kingdom;EGOS;EN;Shawbury Arpt(RAF);52,795;-2,665;249;METAR, TAF;;;;;;;;;
United Kingdom;EGOV;WL;Valley(RAF);53,252;-4,536;36;METAR, TAF;;;;;;;;;
United Kingdom;EGOW;EN;Woodvale(RAF);53,582;-3,055;33;METAR, TAF;;;;;;;;;
United Kingdom;EGOY;SC;West Freugh;54,859;-4,935;36;;;;;;;;;;
United Kingdom;EGPA;SC;Kirkwall Arpt;58,958;-2,905;49;METAR, TAF;;;;;;;;;
United Kingdom;EGPB;SC;Sumburgh Arpt;59,88;-1,296;7;METAR, TAF;;;;;;;;;
United Kingdom;EGPC;SC;Wick Arpt;58,459;-3,093;125;METAR, TAF;;;;;;;;;
United Kingdom;EGPD;SC;Aberdeen Arpt;57,205;-2,205;213;METAR, TAF;;;;;;;;;
United Kingdom;EGPE;SC;Inverness Arpt;57,538;-4,053;23;METAR, TAF;;;;;;;;;
United Kingdom;EGPF;SC;Glasgow Arpt;55,867;-4,433;26;METAR, TAF;;;;;;;;;
United Kingdom;EGPH;SC;Edinburgh Arpt;55,952;-3,36;95;METAR, TAF;;;;;;;;;
United Kingdom;EGPI;SC;Islay Arpt;55,681;-6,25;56;METAR, TAF;;;;;;;;;
United Kingdom;EGPK;SC;Prestwick Intl;55,509;-4,587;46;METAR, TAF;;;;;;;;;
United Kingdom;EGPL;SC;Benbecula Isl Arpt;57,475;-7,364;10;METAR, TAF;;;;;;;;;
United Kingdom;EGPM;SC;Scatsta Arpt;60,433;-1,296;69;METAR, TAF;;;;;;;;;
United Kingdom;EGPN;SC;Dundee Arpt;56,453;-3,026;13;METAR, TAF;;;;;;;;;
United Kingdom;EGPO;SC;Stornoway Arpt;58,215;-6,329;33;METAR, TAF;;;;;;;;;
United Kingdom;EGPT;SC;Perth Arpt;56,437;-3,375;397;;;;;;;;;;
United Kingdom;EGPU;SC;Tiree Island Arpt;56,499;-6,872;39;METAR, TAF;;;;;;;;;
United Kingdom;EGPW;SC;Unst Island;60,748;-0,856;935;;;;;;;;;;
United Kingdom;EGQA;SC;Tain Range;57,825;-3,955;13;;;;;;;;;;
United Kingdom;EGQJ;SC;Machrihanish(RAF);55,441;-5,697;33;;;;;;;;;;
United Kingdom;EGQK;SC;Kinloss(RAF);57,646;-3,563;16;METAR, TAF;;;;;;;;;
United Kingdom;EGQL;SC;Leuchars(RAF);56,377;-2,862;36;METAR, TAF;;;;;;;;;
United Kingdom;EGQM;SC;Boulmer;55,421;-1,601;79;METAR, NEXRAD;;;;;;;;;
United Kingdom;EGQS;SC;Lossiemouth(RAF);57,711;-3,324;20;METAR, TAF;;;;;;;;;
United Kingdom;EGRB;EN;London Weather;51,5;-0,117;36;;;;;;;;;;
United Kingdom;EGRR;EN;Exeter/Bracknell;50,727;-3,475;95;;;;;;;;;;
United Kingdom;EGSC;EN;Cambridge Arpt;52,205;0,175;62;METAR, TAF;;;;;;;;;
United Kingdom;EGSD;EN;Great Yarmouth/N Den;52,634;1,723;7;METAR, TAF;;;;;;;;;
United Kingdom;EGSH;EN;Norwich Intl;52,676;1,283;69;METAR, TAF;;;;;;;;;
United Kingdom;EGSS;EN;London/Stansted Arpt;51,881;0,223;331;METAR, TAF;;;;;;;;;
United Kingdom;EGSY;WL;St Athan Arpt;51,406;-3,434;151;METAR, TAF;;;;;;;;;
United Kingdom;EGTC;EN;Cranfield Arpt;52,072;-0,617;361;METAR, TAF;;;;;;;;;
United Kingdom;EGTE;EN;Exeter Arpt;50,737;-3,406;98;METAR, TAF;;;;;;;;;
United Kingdom;EGTG;EN;Filton Arpt;51,519;-2,591;207;METAR, TAF;;;;;;;;;
United Kingdom;EGTH;EN;Old Warren Arpt;52,087;-0,319;125;;;;;;;;;;
United Kingdom;EGTK;EN;Oxford Arpt;51,838;-1,317;256;METAR, TAF;;;;;;;;;
United Kingdom;EGUA;;Upper Heyford;51,93;-1,25;440;;;;;;;;;;
United Kingdom;EGUB;EN;Benson(RAF);51,62;-1,099;184;METAR, TAF;;;;;;;;;
United Kingdom;EGUC;EN;Aberporth;52,133;-4,567;384;;;;;;;;;;
United Kingdom;EGUF;EN;Farnborough (MIL);51,28;-0,773;213;;;;;;;;;;
United Kingdom;EGUL;EN;Lakenheath(RAF);52,409;0,561;26;METAR, TAF;;;;;;;;;
United Kingdom;EGUM;EN;Manston(RAF);51,346;1,335;164;;;;;;;;;;
United Kingdom;EGUN;EN;Mildenhall(RAF);52,362;0,486;33;METAR, TAF;;;;;;;;;
United Kingdom;EGUO;EN;Colerne(RAF);51,439;-2,286;584;METAR, TAF;;;;;;;;;
United Kingdom;EGUP;EN;Sculthorpe(AF MET);52,847;0,766;207;;;;;;;;;;
United Kingdom;EGUW;EN;Wattisham(RAF);52,124;0,957;282;METAR, TAF;;;;;;;;;
United Kingdom;EGUY;EN;Wyton(RAF);52,357;-0,108;135;METAR, TAF;;;;;;;;;
United Kingdom;EGVA;EN;Fairford(RAF);51,682;-1,79;276;METAR, TAF;;;;;;;;;
United Kingdom;EGVG;EN;Woodbridge(RAF);52,09;1,406;89;;;;;;;;;;
United Kingdom;EGVI;EN;Greenham Common(RAF);51,383;-1,283;390;;;;;;;;;;
United Kingdom;EGVJ;EN;Bentwaters(RAF);52,13;1,43;85;;;;;;;;;;
United Kingdom;EGVN;EN;Brize Norton(RAF);51,758;-1,578;272;METAR, TAF;;;;;;;;;
United Kingdom;EGVO;EN;Odiham(RAF);51,239;-0,945;387;METAR, TAF;;;;;;;;;
United Kingdom;EGVP;EN;Middle Wallop(AAF);51,139;-1,569;262;METAR, TAF;;;;;;;;;
United Kingdom;EGWC;EN;Cosford(RAF);52,64;-2,311;259;METAR, TAF;;;;;;;;;
United Kingdom;EGWU;EN;Northolt(RAF);51,549;-0,417;108;METAR, TAF;;;;;;;;;
United Kingdom;EGWZ;EN;Alconbury(RAF);52,374;-0,22;157;;;;;;;;;;
United Kingdom;EGXC;EN;Coningsby(RAF);53,094;-0,173;30;METAR, TAF;;;;;;;;;
United Kingdom;EGXD;EN;Dishforth(RAF);54,135;-1,414;98;METAR, TAF;;;;;;;;;
United Kingdom;EGXE;EN;Leeming(RAF);54,297;-1,533;98;METAR, TAF;;;;;;;;;
United Kingdom;EGXF;EN;North York;53,995;-1,481;266;;;;;;;;;;
United Kingdom;EGXG;EN;Church Fenton(RAF);53,836;-1,199;33;METAR, TAF;;;;;;;;;
United Kingdom;EGXH;EN;Honington(RAF);52,343;0,773;164;;;;;;;;;;
United Kingdom;EGXJ;EN;Cottesmore(RAF);52,727;-0,656;456;;;;;;;;;;
United Kingdom;EGXN;EN;Newton;52,966;-0,989;167;;;;;;;;;;
United Kingdom;EGXP;EN;Scampton(RAF);53,307;-0,548;190;METAR, TAF;;;;;;;;;
United Kingdom;EGXS;EN;Donna Nook(RAF);53,475;0,152;20;;;;;;;;;;
United Kingdom;EGXT;EN;Wittering Arpt(RAF);52,611;-0,461;243;METAR, TAF;;;;;;;;;
United Kingdom;EGXU;EN;Linton-On-Ouse(RAF);54,045;-1,251;46;METAR, TAF;;;;;;;;;
United Kingdom;EGXV;EN;Leconfield(RAF);53,876;-0,435;20;;;;;;;;;;
United Kingdom;EGXW;EN;Waddington Arpt(RAF);53,175;-0,523;230;METAR, TAF;;;;;;;;;
United Kingdom;EGXZ;EN;Topcliffe(RAF);54,205;-1,39;79;METAR, TAF;;;;;;;;;
United Kingdom;EGYC;EN;Coltishall(RAF);52,755;1,358;66;;;;;;;;;;
United Kingdom;EGYD;EN;Cranwell(RAF);53,031;-0,503;213;METAR, TAF;;;;;;;;;
United Kingdom;EGYE;EN;Barkston Heath(RAF);52,962;-0,562;344;METAR, TAF;;;;;;;;;
United Kingdom;EGYH;EN;Holbeach(AUTO);52,873;0,139;16;;;;;;;;;;
United Kingdom;EGYM;EN;Marham Arpt(RAF);52,648;0,567;82;METAR, TAF;;;;;;;;;
United Kingdom;EGYW;EN;Wainfleet (AUT);53,088;0,271;10;;;;;;;;;;